{"type": "FeatureCollection", "features": [{"type": "Feature", "properties": {"id": 1, "object_type": "source"}, "geometry": {"type": "Point", "coordinates": [37.61142908896952, 55.68593748154912]}}, {"type": "Feature", "properties": {"id": 2, "object_type": "heat_network", "diameter": 400}, "geometry": {"type": "LineString", "coordinates": [[37.61142908896952, 55.68593748154912], [37.62096941979297, 55.68604501832966]]}}, {"type": "Feature", "properties": {"id": 10, "object_type": "restriction", "restriction_type": "oks"}, "geometry": {"type": "Polygon", "coordinates": [[[37.61593217955975, 55.68679710433705], [37.61640920593703, 55.68680248133809], [37.6164028615924, 55.686982137004875], [37.61592583302945, 55.686976759967834], [37.61593217955975, 55.68679710433705]]]}}, {"type": "Feature", "properties": {"id": 100, "object_type": "oks_connection_point", "flow_tph": 30.0}, "geometry": {"type": "Point", "coordinates": [37.616169106375565, 55.68684470698191]}}, {"type": "Feature", "properties": {"id": "island", "object_type": "oks_connection_point", "flow_tph": 10.0}, "geometry": {"type": "Point", "coordinates": [37.6185510757566, 55.68696139678596]}}, {"type": "Feature", "properties": {"id": 29, "object_type": "restriction", "restriction_type": "water"}, "geometry": {"type": "Polygon", "coordinates": [[[37.6177702886426, 55.686548222448586], [37.61936036832726, 55.6865661147251], [37.619328713816685, 55.687464394153196], [37.617738597703884, 55.68744650127771], [37.6177702886426, 55.686548222448586]], [[37.61808196784895, 55.686731458352156], [37.619036020031054, 55.68674219378996], [37.61901702295333, 55.687281161374976], [37.618062957657095, 55.68727042572155], [37.61808196784895, 55.686731458352156]]]}}, {"type": "Feature", "properties": {"id": 11, "object_type": "restriction", "restriction_type": "oks"}, "geometry": {"type": "Polygon", "coordinates": [[[37.61839364996949, 55.68691469347445], [37.618711668820644, 55.68691827197767], [37.61870533500428, 55.68709792781539], [37.618387314696, 55.68709434928821], [37.61839364996949, 55.68691469347445]]]}}]}