{"type": "FeatureCollection", "features": [{"type": "Feature", "properties": {"id": 10, "object_type": "restriction", "restriction_type": "oks"}, "geometry": {"type": "Polygon", "coordinates": [[[37.61593217955975, 55.68679710433705], [37.61640920593703, 55.68680248133809], [37.6164028615924, 55.686982137004875], [37.61592583302945, 55.686976759967834], [37.61593217955975, 55.68679710433705]]]}}, {"type": "Feature", "properties": {"id": 100, "object_type": "oks_connection_point", "flow_tph": 30.0}, "geometry": {"type": "Point", "coordinates": [37.616169106375565, 55.68684470698191]}}]}