{"type": "FeatureCollection", "features": [{"type": "Feature", "properties": {"id": 1, "object_type": "source"}, "geometry": {"type": "Point", "coordinates": [37.61142908896952, 55.68593748154912]}}, {"type": "Feature", "properties": {"id": 2, "object_type": "heat_network", "diameter": 300}, "geometry": {"type": "LineString", "coordinates": [[37.61142908896952, 55.68593748154912], [37.62096941979297, 55.68604501832966]]}}, {"type": "Feature", "properties": {"id": 3, "object_type": "heat_network", "diameter": 1200}, "geometry": {"type": "LineString", "coordinates": [[37.61142908896952, 55.68593748154912], [37.611421130245816, 55.68616205069093], [37.62096151570818, 55.68626958837141]]}}, {"type": "Feature", "properties": {"id": 10, "object_type": "restriction", "restriction_type": "oks"}, "geometry": {"type": "Polygon", "coordinates": [[[37.61593217955975, 55.68679710433705], [37.61640920593703, 55.68680248133809], [37.6164028615924, 55.686982137004875], [37.61592583302945, 55.686976759967834], [37.61593217955975, 55.68679710433705]]]}}, {"type": "Feature", "properties": {"id": 100, "object_type": "oks_connection_point", "flow_tph": 30.0}, "geometry": {"type": "Point", "coordinates": [37.616169106375565, 55.68684470698191]}}]}