{"type": "FeatureCollection", "features": [{"type": "Feature", "properties": {"id": "1", "object_type": "source"}, "geometry": {"type": "Point", "coordinates": [37.61142908896952, 55.68593748154912, 150.0]}}, {"type": "Feature", "properties": {"id": "2", "object_type": "heat_network", "diameter": 350}, "geometry": {"type": "LineString", "coordinates": [[37.61142908896952, 55.68593748154912, 150.0], [37.61619924630879, 55.68599134257822, 150.0], [37.61619924630879, 55.68599134257822, 150.0], [37.62096941979297, 55.68604501832966, 151.0]]}}, {"type": "Feature", "properties": {"id": "10", "object_type": "restriction", "restriction_type": "oks"}, "geometry": {"type": "Polygon", "coordinates": [[[37.61593217955975, 55.68679710433705], [37.61640920593703, 55.68680248133809], [37.6164028615924, 55.686982137004875], [37.61592583302945, 55.686976759967834], [37.61593217955975, 55.68679710433705]]]}}, {"type": "Feature", "properties": {"id": "11", "object_type": "restriction", "restriction_type": "oks"}, "geometry": {"type": "Polygon", "coordinates": [[[37.617140598157214, 55.68636140403844], [37.61760811139515, 55.686636259972055], [37.617617619473904, 55.68636677631748], [37.617131086800036, 55.686630887639055], [37.617140598157214, 55.68636140403844]]]}}, {"type": "Feature", "properties": {"id": "12", "object_type": "restriction", "restriction_type": "metro_entrance"}, "geometry": {"type": "Polygon", "coordinates": [[[37.61491450081355, 55.686336308904764], [37.61523251450445, 55.68633989639426], [37.615226164875175, 55.68651955198547], [37.61490814972721, 55.68651596447195], [37.61491450081355, 55.686336308904764]]]}}, {"type": "Feature", "properties": {"id": "13", "object_type": "oks_connection_point", "flow_tph": 12.5}, "geometry": null}, {"type": "Feature", "properties": {"id": "100", "object_type": "oks_connection_point", "flow_tph": 30.0}, "geometry": {"type": "Point", "coordinates": [37.616169106375565, 55.68684470698191]}}]}