{"type": "FeatureCollection", "features": [{"type": "Feature", "properties": {"id": 1, "object_type": "source"}, "geometry": {"type": "Point", "coordinates": [37.61142908896952, 55.68593748154912]}}, {"type": "Feature", "properties": {"id": 2, "object_type": "heat_network", "diameter": 400}, "geometry": {"type": "LineString", "coordinates": [[37.61142908896952, 55.68593748154912], [37.62096941979297, 55.68604501832966]]}}, {"type": "Feature", "properties": {"id": 10, "object_type": "restriction", "restriction_type": "oks"}, "geometry": {"type": "Polygon", "coordinates": [[[37.61554418009496, 55.6865231386755], [37.616816241691794, 55.68653747720096], [37.61680672804141, 55.68680696075693], [37.615534657702035, 55.68679262208749], [37.61554418009496, 55.6865231386755]]]}}, {"type": "Feature", "properties": {"id": 100, "object_type": "oks_connection_point", "flow_tph": 15.0}, "geometry": {"type": "Point", "coordinates": [37.6161611745451, 55.68706927654018]}}]}