{"type":"FeatureCollection","features":[{"type":"Feature","properties":{"id":"v1_net_1","object_type":"heat_network","variant_id":"v1","start_node_id":"v1_ch_1","end_node_id":16,"flow_tph":76.27,"diameter":200,"length":189.8356172268713,"laying_method":"base","depth_start":null,"depth_end":null,"cost":22832478.861961946,"diag_dn_by_flow":200},"geometry":{"type":"LineString","coordinates":[[37.64011175185537,55.6994551555956],[37.64091117544324,55.699285716565115],[37.64128599148666,55.6992051451174],[37.64132120938839,55.69918589271152],[37.641398243293565,55.69911332066036],[37.64141171334992,55.699086693072445],[37.64139980842374,55.69905982869048],[37.64109311824906,55.69856781226259],[37.64104643011425,55.69849861529535],[37.64096706001939,55.698425138341335],[37.64091171962106,55.69837570881386],[37.64076446632709,55.698407391822506]]}},{"type":"Feature","properties":{"id":"v1_net_3","object_type":"heat_network","variant_id":"v1","start_node_id":"v1_ch_2","end_node_id":"v1_ch_3","flow_tph":286.01000000000005,"diameter":300,"length":222.53250275975012,"laying_method":"base","depth_start":null,"depth_end":null,"cost":33384771.12902323,"diag_dn_by_flow":300},"geometry":{"type":"LineString","coordinates":[[37.639810254743196,55.69962994619462],[37.63924699154813,55.699748428759136],[37.6364417952692,55.70024408973501]]}},{"type":"Feature","properties":{"id":"v1_net_4","object_type":"heat_network","variant_id":"v1","start_node_id":"v1_ch_3","end_node_id":4,"flow_tph":47.7,"diameter":150,"length":10.586861519455699,"laying_method":"base","depth_start":null,"depth_end":null,"cost":1116987.9983332125,"diag_dn_by_flow":150},"geometry":{"type":"LineString","coordinates":[[37.6364417952692,55.70024408973501],[37.6363818514204,55.7001551990147]]}},{"type":"Feature","properties":{"id":"v1_net_16","object_type":"heat_network","variant_id":"v1","start_node_id":"v1_ch_3","end_node_id":"v1_ch_8","flow_tph":238.31000000000003,"diameter":250,"length":162.15033541803604,"laying_method":"base","depth_start":null,"depth_end":null,"cost":21942669.83977489,"diag_dn_by_flow":250},"geometry":{"type":"LineString","coordinates":[[37.6364417952692,55.70024408973501],[37.63631743977659,55.70027040671626],[37.636268649192345,55.70027322893122],[37.63622389650034,55.700261896425964],[37.63532738526492,55.69958047956489],[37.63528261439584,55.699569150966134],[37.63523381250549,55.69957198624682],[37.63449329283387,55.699629479987486]]}},{"type":"Feature","properties":{"id":"v1_net_17","object_type":"heat_network","variant_id":"v1","start_node_id":"v1_ch_8","end_node_id":"v1_ch_6","flow_tph":213.44000000000003,"diameter":250,"length":21.639546399131486,"laying_method":"base","depth_start":null,"depth_end":null,"cost":2928328.33736967,"diag_dn_by_flow":250},"geometry":{"type":"LineString","coordinates":[[37.63449329283387,55.699629479987486],[37.634273775571245,55.69964652235471],[37.634224988712674,55.699649342492364],[37.63418024040404,55.69963800992894],[37.6341658307332,55.69962674702153]]}},{"type":"Feature","properties":{"id":"v1_net_13","object_type":"heat_network","variant_id":"v1","start_node_id":"v1_ch_6","end_node_id":"v1_ch_4","flow_tph":145.92000000000002,"diameter":200,"length":125.06670670257088,"laying_method":"base","depth_start":null,"depth_end":null,"cost":15042398.148651714,"diag_dn_by_flow":200},"geometry":{"type":"LineString","coordinates":[[37.6341658307332,55.69962674702153],[37.63415151914341,55.699615560768294],[37.633251146499376,55.698629021469344]]}},{"type":"Feature","properties":{"id":"v1_net_7","object_type":"heat_network","variant_id":"v1","start_node_id":"v1_ch_4","end_node_id":12,"flow_tph":40.0,"diameter":125,"length":7.521366438817387,"laying_method":"base","depth_start":null,"depth_end":null,"cost":731640.9203359614,"diag_dn_by_flow":125},"geometry":{"type":"LineString","coordinates":[[37.633251146499376,55.698629021469344],[37.63313932211122,55.69865306825248]]}},{"type":"Feature","properties":{"id":"v1_net_9","object_type":"heat_network","variant_id":"v1","start_node_id":"v1_ch_4","end_node_id":"v1_ch_5","flow_tph":105.92,"diameter":200,"length":92.83574882995548,"laying_method":"base","depth_start":null,"depth_end":null,"cost":11165819.690522894,"diag_dn_by_flow":200},"geometry":{"type":"LineString","coordinates":[[37.633251146499376,55.698629021469344],[37.63298781519484,55.6978919874087],[37.63298281453279,55.69786458037731],[37.6330026224789,55.69783940147922],[37.63304106139926,55.69782318531607]]}},{"type":"Feature","properties":{"id":"v1_net_20","object_type":"heat_network","variant_id":"v1","start_node_id":"v1_ch_5","end_node_id":"v1_ch_10","flow_tph":74.03,"diameter":200,"length":53.30312162417643,"laying_method":"base","depth_start":null,"depth_end":null,"cost":6411032.95334782,"diag_dn_by_flow":200},"geometry":{"type":"LineString","coordinates":[[37.63304106139926,55.69782318531607],[37.63305996299315,55.69781521132282],[37.63378354486823,55.69759212374158]]}},{"type":"Feature","properties":{"id":"v1_net_21","object_type":"heat_network","variant_id":"v1","start_node_id":"v1_ch_10","end_node_id":9,"flow_tph":34.53,"diameter":125,"length":66.2102504717239,"laying_method":"base","depth_start":null,"depth_end":null,"cost":6440602.114636942,"diag_dn_by_flow":125},"geometry":{"type":"LineString","coordinates":[[37.63378354486823,55.69759212374158],[37.63452159813895,55.697364567435415],[37.6344462678961,55.6972523917077]]}},{"type":"Feature","properties":{"id":"v1_net_11","object_type":"heat_network","variant_id":"v1","start_node_id":"v1_ch_5","end_node_id":15,"flow_tph":31.89,"diameter":125,"length":128.1654533478261,"laying_method":"base","depth_start":null,"depth_end":null,"cost":12467294.474409783,"diag_dn_by_flow":125},"geometry":{"type":"LineString","coordinates":[[37.63304106139926,55.69782318531607],[37.6328382815906,55.69766987084454],[37.6321484022266,55.696990728464456],[37.63211825241074,55.696971348603974],[37.63207555074161,55.696962188693],[37.632030223163106,55.69696537793897],[37.6320173511772,55.69696817593548],[37.631988422576505,55.69697703678936],[37.63203443949898,55.69704568983144]]}},{"type":"Feature","properties":{"id":"v1_net_15","object_type":"heat_network","variant_id":"v1","start_node_id":"v1_ch_7","end_node_id":7,"flow_tph":27.82,"diameter":125,"length":34.923596939639424,"laying_method":"base","depth_start":null,"depth_end":null,"cost":3397192.892303425,"diag_dn_by_flow":125},"geometry":{"type":"LineString","coordinates":[[37.63853620353293,55.69774905147246],[37.63821691516305,55.6978628033917],[37.6382803042186,55.6979567862892]]}},{"type":"Feature","properties":{"id":"v1_net_18","object_type":"heat_network","variant_id":"v1","start_node_id":"v1_ch_8","end_node_id":1,"flow_tph":24.87,"diameter":125,"length":17.485068725266842,"laying_method":"base","depth_start":null,"depth_end":null,"cost":1700860.060250332,"diag_dn_by_flow":125},"geometry":{"type":"LineString","coordinates":[[37.63449329283387,55.699629479987486],[37.63448641584975,55.699601229553444],[37.6344054041544,55.6994810644531]]}},{"type":"Feature","properties":{"id":"v1_net_19","object_type":"heat_network","variant_id":"v1","start_node_id":"v1_ch_9","end_node_id":17,"flow_tph":20.63,"diameter":100,"length":107.91912481724792,"laying_method":"base","depth_start":null,"depth_end":null,"cost":9685525.614098366,"diag_dn_by_flow":100},"geometry":{"type":"LineString","coordinates":[[37.63801390629156,55.697025174753016],[37.63947408135598,55.69675625299961],[37.639538146115,55.6968518286392]]}},{"type":"Feature","properties":{"id":"v1_net_22","object_type":"heat_network","variant_id":"v1","start_node_id":"v1_ch_10","end_node_id":13,"flow_tph":19.77,"diameter":100,"length":16.413145210353495,"laying_method":"base","depth_start":null,"depth_end":null,"cost":1473046.9563388054,"diag_dn_by_flow":100},"geometry":{"type":"LineString","coordinates":[[37.63378354486823,55.69759212374158],[37.63384889424688,55.69764524662505],[37.6339010562985,55.6977226072331]]}},{"type":"Feature","properties":{"id":"v1_net_23","object_type":"heat_network","variant_id":"v1","start_node_id":"v1_ch_10","end_node_id":14,"flow_tph":19.73,"diameter":100,"length":13.73406523433443,"laying_method":"base","depth_start":null,"depth_end":null,"cost":1232604.8866510463,"diag_dn_by_flow":100},"geometry":{"type":"LineString","coordinates":[[37.63378354486823,55.69759212374158],[37.633786795307486,55.697523179104465],[37.6337524411436,55.6974723292097]]}},{"type":"Feature","properties":{"id":"v1_net_31","object_type":"heat_network","variant_id":"v1","start_node_id":"v1_ch_13","end_node_id":"v1_ch_12","flow_tph":34.02,"diameter":125,"length":49.9576942579355,"laying_method":"base","depth_start":null,"depth_end":null,"cost":4859634.7089406755,"diag_dn_by_flow":125},"geometry":{"type":"LineString","coordinates":[[37.633037976765074,55.70006196091694],[37.63280975765016,55.7000961754289],[37.63256722791727,55.70014826136417],[37.63252745009471,55.700164477877834],[37.63236118936772,55.700270021552804]]}},{"type":"Feature","properties":{"id":"v1_net_28","object_type":"heat_network","variant_id":"v1","start_node_id":"v1_ch_12","end_node_id":8,"flow_tph":18.03,"diameter":100,"length":11.332611383248507,"laying_method":"base","depth_start":null,"depth_end":null,"cost":1017079.2064237869,"diag_dn_by_flow":100},"geometry":{"type":"LineString","coordinates":[[37.63236118936772,55.700270021552804],[37.63233680493202,55.7002855009255],[37.632202633606305,55.70031441743034]]}},{"type":"Feature","properties":{"id":"v1_net_29","object_type":"heat_network","variant_id":"v1","start_node_id":"v1_ch_12","end_node_id":6,"flow_tph":15.99,"diameter":100,"length":33.74660874554022,"laying_method":"base","depth_start":null,"depth_end":null,"cost":3028690.6416947437,"diag_dn_by_flow":100},"geometry":{"type":"LineString","coordinates":[[37.63236118936772,55.700270021552804],[37.63206106466893,55.70011997686326],[37.632012226474316,55.700048261255056]]}},{"type":"Feature","properties":{"id":"v1_net_32","object_type":"heat_network","variant_id":"v1","start_node_id":"v1_ch_13","end_node_id":11,"flow_tph":4.08,"diameter":65,"length":69.259789629787,"laying_method":"base","depth_start":null,"depth_end":null,"cost":5445966.518379781,"diag_dn_by_flow":65},"geometry":{"type":"LineString","coordinates":[[37.633037976765074,55.70006196091694],[37.632856080844164,55.69967501567977],[37.633022088698915,55.69961431045691],[37.6332044989075,55.699575075115]]}},{"type":"Feature","properties":{"id":"v1_net_34","object_type":"heat_network","variant_id":"v1","start_node_id":"v1_ch_13","end_node_id":"v1_ch_6","flow_tph":67.52000000000001,"diameter":200,"length":86.24908071317766,"laying_method":"base","depth_start":null,"depth_end":null,"cost":10373608.182777444,"diag_dn_by_flow":200},"geometry":{"type":"LineString","coordinates":[[37.633037976765074,55.70006196091694],[37.63313475722057,55.70004745148597],[37.6341658307332,55.69962674702153]]}},{"type":"Feature","properties":{"id":"v1_net_35","object_type":"heat_network","variant_id":"v1","start_node_id":"v1_ch_13","end_node_id":3,"flow_tph":29.42,"diameter":125,"length":32.783404216499,"laying_method":"base","depth_start":null,"depth_end":null,"cost":3189005.6451599402,"diag_dn_by_flow":125},"geometry":{"type":"LineString","coordinates":[[37.633037976765074,55.70006196091694],[37.63297210870133,55.700113814631024],[37.63295337503465,55.70013738561454],[37.632958013130924,55.700163088840725],[37.63300565331933,55.7002415428185],[37.6328466024688,55.7002757601967]]}},{"type":"Feature","properties":{"id":"v1_ch_1","variant_id":"v1","object_type":"heat_chamber","diameter":400,"cost":5000000.0,"diag_tie_in":true},"geometry":{"type":"Point","coordinates":[37.64011175185537,55.6994551555956]}},{"type":"Feature","properties":{"id":"v1_ch_2","variant_id":"v1","object_type":"heat_chamber","diameter":400,"cost":5000000.0,"diag_tie_in":true},"geometry":{"type":"Point","coordinates":[37.639810254743196,55.69962994619462]}},{"type":"Feature","properties":{"id":"v1_ch_3","variant_id":"v1","object_type":"heat_chamber","diameter":300,"cost":5000000.0,"diag_tie_in":false},"geometry":{"type":"Point","coordinates":[37.6364417952692,55.70024408973501]}},{"type":"Feature","properties":{"id":"v1_ch_4","variant_id":"v1","object_type":"heat_chamber","diameter":200,"cost":3000000.0,"diag_tie_in":false},"geometry":{"type":"Point","coordinates":[37.633251146499376,55.698629021469344]}},{"type":"Feature","properties":{"id":"v1_ch_5","variant_id":"v1","object_type":"heat_chamber","diameter":200,"cost":3000000.0,"diag_tie_in":false},"geometry":{"type":"Point","coordinates":[37.63304106139926,55.69782318531607]}},{"type":"Feature","properties":{"id":"v1_ch_6","variant_id":"v1","object_type":"heat_chamber","diameter":250,"cost":5000000.0,"diag_tie_in":false},"geometry":{"type":"Point","coordinates":[37.6341658307332,55.69962674702153]}},{"type":"Feature","properties":{"id":"v1_ch_7","variant_id":"v1","object_type":"heat_chamber","diameter":400,"cost":5000000.0,"diag_tie_in":true},"geometry":{"type":"Point","coordinates":[37.63853620353293,55.69774905147246]}},{"type":"Feature","properties":{"id":"v1_ch_8","variant_id":"v1","object_type":"heat_chamber","diameter":250,"cost":5000000.0,"diag_tie_in":false},"geometry":{"type":"Point","coordinates":[37.63449329283387,55.699629479987486]}},{"type":"Feature","properties":{"id":"v1_ch_9","variant_id":"v1","object_type":"heat_chamber","diameter":400,"cost":5000000.0,"diag_tie_in":true},"geometry":{"type":"Point","coordinates":[37.63801390629156,55.697025174753016]}},{"type":"Feature","properties":{"id":"v1_ch_10","variant_id":"v1","object_type":"heat_chamber","diameter":200,"cost":3000000.0,"diag_tie_in":false},"geometry":{"type":"Point","coordinates":[37.63378354486823,55.69759212374158]}},{"type":"Feature","properties":{"id":"v1_ch_12","variant_id":"v1","object_type":"heat_chamber","diameter":125,"cost":3000000.0,"diag_tie_in":false},"geometry":{"type":"Point","coordinates":[37.63236118936772,55.700270021552804]}},{"type":"Feature","properties":{"id":"v1_ch_13","variant_id":"v1","object_type":"heat_chamber","diameter":200,"cost":3000000.0,"diag_tie_in":false},"geometry":{"type":"Point","coordinates":[37.633037976765074,55.70006196091694]}},{"type":"Feature","properties":{"id":"v1_summary","object_type":"variant_summary","variant_id":"v1","rank":1,"construction_cost":229867239.7813864,"chamber_construction_cost":50000000,"existing_chamber_tie_in_count":0,"existing_chamber_tie_in_cost":0.0,"unconnected_penalty":338995000,"calculated_cost":568862239.7813864,"new_network_length":1553.6517006113452,"score":20.589097815712854,"unconnected_oks_ids":[2,5,10],"diag_description":"совместное подключение: цели присоединяются к существующей или уже построенной новой сети; порядок целей: больший расход — раньше","diag_terminal_policy":"literal","diag_search_truncated":false,"diag_relaxed_final_approach":[],"diag_unconnected_reasons":{"10":"строгий финальный подход недоступен (§2.2) (ДУ 125)","5":"строгий финальный подход недоступен (§2.2) (ДУ 125)","2":"строгий финальный подход недоступен (§2.2) (ДУ 100)"}},"geometry":null},{"type":"Feature","properties":{"id":"v2_net_6","object_type":"heat_network","variant_id":"v2","start_node_id":"v2_ch_1","end_node_id":"v2_ch_3","flow_tph":334.46,"diameter":300,"length":23.72992957090754,"laying_method":"base","depth_start":null,"depth_end":null,"cost":3560011.494086691,"diag_dn_by_flow":300},"geometry":{"type":"LineString","coordinates":[[37.63853620353293,55.69774905147246],[37.63821691516305,55.6978628033917]]}},{"type":"Feature","properties":{"id":"v2_net_7","object_type":"heat_network","variant_id":"v2","start_node_id":"v2_ch_3","end_node_id":7,"flow_tph":27.82,"diameter":125,"length":11.193667368731882,"laying_method":"base","depth_start":null,"depth_end":null,"cost":1088863.9932933939,"diag_dn_by_flow":125},"geometry":{"type":"LineString","coordinates":[[37.63821691516305,55.6978628033917],[37.6382803042186,55.6979567862892]]}},{"type":"Feature","properties":{"id":"v2_net_36","object_type":"heat_network","variant_id":"v2","start_node_id":"v2_ch_3","end_node_id":"v2_ch_12","flow_tph":306.64,"diameter":300,"length":6.365386628626259,"laying_method":"base","depth_start":null,"depth_end":null,"cost":954948.0327997686,"diag_dn_by_flow":300},"geometry":{"type":"LineString","coordinates":[[37.63821691516305,55.6978628033917],[37.638119521386315,55.69784714301677]]}},{"type":"Feature","properties":{"id":"v2_net_37","object_type":"heat_network","variant_id":"v2","start_node_id":"v2_ch_12","end_node_id":"v2_ch_4","flow_tph":286.01,"diameter":300,"length":256.2404945770379,"laying_method":"base","depth_start":null,"depth_end":null,"cost":38441711.47743638,"diag_dn_by_flow":300},"geometry":{"type":"LineString","coordinates":[[37.638119521386315,55.69784714301677],[37.63738122308061,55.69772842586185],[37.63733647356429,55.69771709713168],[37.63624666517351,55.69714933006831],[37.63620201081999,55.697138013811355],[37.63615331528201,55.69714079378424],[37.63452159813895,55.697364567435415]]}},{"type":"Feature","properties":{"id":"v2_net_11","object_type":"heat_network","variant_id":"v2","start_node_id":"v2_ch_4","end_node_id":9,"flow_tph":34.53,"diameter":125,"length":13.353166867410932,"laying_method":"base","depth_start":null,"depth_end":null,"cost":1298929.3070273984,"diag_dn_by_flow":125},"geometry":{"type":"LineString","coordinates":[[37.63452159813895,55.697364567435415],[37.6344462678961,55.6972523917077]]}},{"type":"Feature","properties":{"id":"v2_net_13","object_type":"heat_network","variant_id":"v2","start_node_id":"v2_ch_4","end_node_id":"v2_ch_5","flow_tph":251.48000000000002,"diameter":250,"length":51.11606343265136,"laying_method":"base","depth_start":null,"depth_end":null,"cost":6917179.05189668,"diag_dn_by_flow":250},"geometry":{"type":"LineString","coordinates":[[37.63452159813895,55.697364567435415],[37.6340182425145,55.6976358481413],[37.63392931093895,55.69759255617202]]}},{"type":"Feature","properties":{"id":"v2_net_14","object_type":"heat_network","variant_id":"v2","start_node_id":"v2_ch_5","end_node_id":14,"flow_tph":19.73,"diameter":100,"length":17.88479303365405,"laying_method":"base","depth_start":null,"depth_end":null,"cost":1605124.4051843835,"diag_dn_by_flow":100},"geometry":{"type":"LineString","coordinates":[[37.63392931093895,55.69759255617202],[37.633786795307486,55.697523179104465],[37.6337524411436,55.6974723292097]]}},{"type":"Feature","properties":{"id":"v2_net_15","object_type":"heat_network","variant_id":"v2","start_node_id":"v2_ch_5","end_node_id":13,"flow_tph":19.77,"diameter":100,"length":16.95600757687441,"laying_method":"base","depth_start":null,"depth_end":null,"cost":1521767.7680093246,"diag_dn_by_flow":100},"geometry":{"type":"LineString","coordinates":[[37.63392931093895,55.69759255617202],[37.63384889424688,55.69764524662505],[37.6339010562985,55.6977226072331]]}},{"type":"Feature","properties":{"id":"v2_net_20","object_type":"heat_network","variant_id":"v2","start_node_id":"v2_ch_5","end_node_id":"v2_ch_7","flow_tph":211.98000000000002,"diameter":250,"length":62.084330798887926,"laying_method":"base","depth_start":null,"depth_end":null,"cost":8401437.89669791,"diag_dn_by_flow":250},"geometry":{"type":"LineString","coordinates":[[37.63392931093895,55.69759255617202],[37.63296041010325,55.697700777207466]]}},{"type":"Feature","properties":{"id":"v2_net_21","object_type":"heat_network","variant_id":"v2","start_node_id":"v2_ch_7","end_node_id":15,"flow_tph":31.89,"diameter":125,"length":116.10087737175715,"laying_method":"base","depth_start":null,"depth_end":null,"cost":11293712.846337676,"diag_dn_by_flow":125},"geometry":{"type":"LineString","coordinates":[[37.63296041010325,55.697700777207466],[37.63291169183539,55.69770358080504],[37.6328670026323,55.69769227156367],[37.6328382815906,55.69766987084454],[37.6321484022266,55.696990728464456],[37.63211825241074,55.696971348603974],[37.63207555074161,55.696962188693],[37.632030223163106,55.69696537793897],[37.6320173511772,55.69696817593548],[37.631988422576505,55.69697703678936],[37.63203443949898,55.69704568983144]]}},{"type":"Feature","properties":{"id":"v2_net_23","object_type":"heat_network","variant_id":"v2","start_node_id":"v2_ch_7","end_node_id":"v2_ch_8","flow_tph":180.09,"diameter":250,"length":105.0391222183009,"laying_method":"base","depth_start":null,"depth_end":null,"cost":14214209.135947132,"diag_dn_by_flow":250},"geometry":{"type":"LineString","coordinates":[[37.63296041010325,55.697700777207466],[37.63298281453279,55.69786458037731],[37.63298781519484,55.6978919874087],[37.633251146499376,55.698629021469344]]}},{"type":"Feature","properties":{"id":"v2_net_24","object_type":"heat_network","variant_id":"v2","start_node_id":"v2_ch_8","end_node_id":12,"flow_tph":40.0,"diameter":125,"length":7.521366438817387,"laying_method":"base","depth_start":null,"depth_end":null,"cost":731640.9203359614,"diag_dn_by_flow":125},"geometry":{"type":"LineString","coordinates":[[37.633251146499376,55.698629021469344],[37.63313932211122,55.69865306825248]]}},{"type":"Feature","properties":{"id":"v2_net_26","object_type":"heat_network","variant_id":"v2","start_node_id":"v2_ch_8","end_node_id":"v2_ch_9","flow_tph":140.09,"diameter":200,"length":157.20097121341607,"laying_method":"base","depth_start":null,"depth_end":null,"cost":18907346.81269362,"diag_dn_by_flow":200},"geometry":{"type":"LineString","coordinates":[[37.633251146499376,55.698629021469344],[37.63326095546049,55.69864469233531],[37.63326595205798,55.69867224009607],[37.6332458950433,55.69869750936386],[37.63236010530606,55.69935729156632],[37.63234003646999,55.699382568083],[37.63234503838731,55.69941012485373],[37.63249354911082,55.69966996641368],[37.632532389999255,55.69972731844093],[37.632561154313244,55.69974973928071],[37.6326059115196,55.699761039445626],[37.63265467828037,55.699758193416365],[37.63271999835219,55.69974411139888]]}},{"type":"Feature","properties":{"id":"v2_net_27","object_type":"heat_network","variant_id":"v2","start_node_id":"v2_ch_9","end_node_id":11,"flow_tph":4.08,"diameter":65,"length":36.12960532734975,"laying_method":"base","depth_start":null,"depth_end":null,"cost":2840906.996494838,"diag_dn_by_flow":65},"geometry":{"type":"LineString","coordinates":[[37.63271999835219,55.69974411139888],[37.632759704923835,55.69972789006134],[37.633022088698915,55.69961431045691],[37.6332044989075,55.699575075115]]}},{"type":"Feature","properties":{"id":"v2_net_32","object_type":"heat_network","variant_id":"v2","start_node_id":"v2_ch_10","end_node_id":"v2_ch_11","flow_tph":34.02,"diameter":125,"length":39.84181777538251,"laying_method":"base","depth_start":null,"depth_end":null,"cost":3875612.8241003337,"diag_dn_by_flow":125},"geometry":{"type":"LineString","coordinates":[[37.6329452954657,55.70007449513875],[37.63285853276766,55.70009336446059],[37.632318586253994,55.700111383650324]]}},{"type":"Feature","properties":{"id":"v2_net_33","object_type":"heat_network","variant_id":"v2","start_node_id":"v2_ch_11","end_node_id":6,"flow_tph":15.99,"diameter":100,"length":24.76692436994003,"laying_method":"base","depth_start":null,"depth_end":null,"cost":2222781.9283533776,"diag_dn_by_flow":100},"geometry":{"type":"LineString","coordinates":[[37.632318586253994,55.700111383650324],[37.63206106466893,55.70011997686326],[37.632012226474316,55.700048261255056]]}},{"type":"Feature","properties":{"id":"v2_net_34","object_type":"heat_network","variant_id":"v2","start_node_id":"v2_ch_11","end_node_id":8,"flow_tph":18.03,"diameter":100,"length":28.44003827583918,"laying_method":"base","depth_start":null,"depth_end":null,"cost":2552436.5551800146,"diag_dn_by_flow":100},"geometry":{"type":"LineString","coordinates":[[37.632318586253994,55.700111383650324],[37.63233680493202,55.7002855009255],[37.632202633606305,55.70031441743034]]}},{"type":"Feature","properties":{"id":"v2_net_35","object_type":"heat_network","variant_id":"v2","start_node_id":"v2_ch_1","end_node_id":16,"flow_tph":76.27,"diameter":200,"length":222.09084473084025,"laying_method":"base","depth_start":null,"depth_end":null,"cost":26711976.350001812,"diag_dn_by_flow":200},"geometry":{"type":"LineString","coordinates":[[37.63853620353293,55.69774905147246],[37.64027924559145,55.69757878607488],[37.640328025841164,55.69757590385965],[37.64039179722225,55.6975921589047],[37.64042009194543,55.69761433999244],[37.64091045879985,55.698341132298324],[37.640915560759765,55.698368673929515],[37.64091171962106,55.69837570881386],[37.64076446632709,55.698407391822506]]}},{"type":"Feature","properties":{"id":"v2_net_38","object_type":"heat_network","variant_id":"v2","start_node_id":"v2_ch_12","end_node_id":"v2_tn_1","flow_tph":20.63,"diameter":100,"length":45.08764900478606,"laying_method":"base","depth_start":null,"depth_end":null,"cost":4046526.3228815394,"diag_dn_by_flow":100},"geometry":{"type":"LineString","coordinates":[[37.638119521386315,55.69784714301677],[37.6382887322986,55.69745348291984]]}},{"type":"Feature","properties":{"id":"v2_net_39","object_type":"heat_network","variant_id":"v2","start_node_id":"v2_tn_1","end_node_id":"v2_tn_2","flow_tph":20.63,"diameter":100,"length":7.764496021466572,"laying_method":"special","depth_start":null,"depth_end":null,"cost":731690.388381311,"diag_dn_by_flow":100,"diag_k_spec":1.05,"diag_crossing":["heat_network:128"]},"geometry":{"type":"LineString","coordinates":[[37.6382887322986,55.69745348291984],[37.63831787158019,55.69738569110595]]}},{"type":"Feature","properties":{"id":"v2_net_40","object_type":"heat_network","variant_id":"v2","start_node_id":"v2_tn_2","end_node_id":17,"flow_tph":20.63,"diameter":100,"length":141.16610742212754,"laying_method":"base","depth_start":null,"depth_end":null,"cost":12669375.808921102,"diag_dn_by_flow":100},"geometry":{"type":"LineString","coordinates":[[37.63831787158019,55.69738569110595],[37.638598091182985,55.6967337545596],[37.63947408135598,55.69675625299961],[37.639538146115,55.6968518286392]]}},{"type":"Feature","properties":{"id":"v2_net_45","object_type":"heat_network","variant_id":"v2","start_node_id":"v2_ch_10","end_node_id":"v2_ch_13","flow_tph":72.57000000000001,"diameter":200,"length":73.10267938005306,"laying_method":"base","depth_start":null,"depth_end":null,"cost":8792424.762435881,"diag_dn_by_flow":200},"geometry":{"type":"LineString","coordinates":[[37.6329452954657,55.70007449513875],[37.633686201205634,55.69991533951081],[37.63372596129772,55.699899119408755],[37.63398994772548,55.6997957101029]]}},{"type":"Feature","properties":{"id":"v2_net_46","object_type":"heat_network","variant_id":"v2","start_node_id":"v2_ch_13","end_node_id":1,"flow_tph":24.87,"diameter":125,"length":52.28975957970458,"laying_method":"base","depth_start":null,"depth_end":null,"cost":5086486.363115763,"diag_dn_by_flow":125},"geometry":{"type":"LineString","coordinates":[[37.63398994772548,55.6997957101029],[37.63448641584975,55.699601229553444],[37.6344054041544,55.6994810644531]]}},{"type":"Feature","properties":{"id":"v2_net_43","object_type":"heat_network","variant_id":"v2","start_node_id":"v2_ch_9","end_node_id":"v2_ch_10","flow_tph":136.01,"diameter":200,"length":39.40490120821909,"laying_method":"base","depth_start":null,"depth_end":null,"cost":4739424.492818551,"diag_dn_by_flow":200},"geometry":{"type":"LineString","coordinates":[[37.63271999835219,55.69974411139888],[37.6329452954657,55.70007449513875]]}},{"type":"Feature","properties":{"id":"v2_net_44","object_type":"heat_network","variant_id":"v2","start_node_id":"v2_ch_10","end_node_id":3,"flow_tph":29.42,"diameter":125,"length":29.823158841377843,"laying_method":"base","depth_start":null,"depth_end":null,"cost":2901047.7762950296,"diag_dn_by_flow":125},"geometry":{"type":"LineString","coordinates":[[37.6329452954657,55.70007449513875],[37.63295337503465,55.70013738561454],[37.632958013130924,55.700163088840725],[37.63300565331933,55.7002415428185],[37.6328466024688,55.7002757601967]]}},{"type":"Feature","properties":{"id":"v2_net_47","object_type":"heat_network","variant_id":"v2","start_node_id":"v2_ch_13","end_node_id":4,"flow_tph":47.7,"diameter":150,"length":220.98744394893018,"laying_method":"base","depth_start":null,"depth_end":null,"cost":23315722.248719778,"diag_dn_by_flow":150},"geometry":{"type":"LineString","coordinates":[[37.63398994772548,55.6997957101029],[37.63409090451829,55.699877904756136],[37.6347791020539,55.70054833261101],[37.63480782102906,55.700570799832924],[37.634852589135065,55.70058214219607],[37.63490140073537,55.70057931797276],[37.635785055707764,55.70038919173652],[37.6364417952692,55.70024408973501],[37.6363818514204,55.7001551990147]]}},{"type":"Feature","properties":{"id":"v2_ch_1","variant_id":"v2","object_type":"heat_chamber","diameter":400,"cost":5000000.0,"diag_tie_in":true},"geometry":{"type":"Point","coordinates":[37.63853620353293,55.69774905147246]}},{"type":"Feature","properties":{"id":"v2_ch_3","variant_id":"v2","object_type":"heat_chamber","diameter":300,"cost":5000000.0,"diag_tie_in":false},"geometry":{"type":"Point","coordinates":[37.63821691516305,55.6978628033917]}},{"type":"Feature","properties":{"id":"v2_ch_4","variant_id":"v2","object_type":"heat_chamber","diameter":300,"cost":5000000.0,"diag_tie_in":false},"geometry":{"type":"Point","coordinates":[37.63452159813895,55.697364567435415]}},{"type":"Feature","properties":{"id":"v2_ch_5","variant_id":"v2","object_type":"heat_chamber","diameter":250,"cost":5000000.0,"diag_tie_in":false},"geometry":{"type":"Point","coordinates":[37.63392931093895,55.69759255617202]}},{"type":"Feature","properties":{"id":"v2_ch_7","variant_id":"v2","object_type":"heat_chamber","diameter":250,"cost":5000000.0,"diag_tie_in":false},"geometry":{"type":"Point","coordinates":[37.63296041010325,55.697700777207466]}},{"type":"Feature","properties":{"id":"v2_ch_8","variant_id":"v2","object_type":"heat_chamber","diameter":250,"cost":5000000.0,"diag_tie_in":false},"geometry":{"type":"Point","coordinates":[37.633251146499376,55.698629021469344]}},{"type":"Feature","properties":{"id":"v2_ch_9","variant_id":"v2","object_type":"heat_chamber","diameter":200,"cost":3000000.0,"diag_tie_in":false},"geometry":{"type":"Point","coordinates":[37.63271999835219,55.69974411139888]}},{"type":"Feature","properties":{"id":"v2_ch_10","variant_id":"v2","object_type":"heat_chamber","diameter":200,"cost":3000000.0,"diag_tie_in":false},"geometry":{"type":"Point","coordinates":[37.6329452954657,55.70007449513875]}},{"type":"Feature","properties":{"id":"v2_ch_11","variant_id":"v2","object_type":"heat_chamber","diameter":125,"cost":3000000.0,"diag_tie_in":false},"geometry":{"type":"Point","coordinates":[37.632318586253994,55.700111383650324]}},{"type":"Feature","properties":{"id":"v2_ch_12","variant_id":"v2","object_type":"heat_chamber","diameter":300,"cost":5000000.0,"diag_tie_in":false},"geometry":{"type":"Point","coordinates":[37.638119521386315,55.69784714301677]}},{"type":"Feature","properties":{"id":"v2_tn_1","variant_id":"v2","object_type":"technical_node"},"geometry":{"type":"Point","coordinates":[37.6382887322986,55.69745348291984]}},{"type":"Feature","properties":{"id":"v2_tn_2","variant_id":"v2","object_type":"technical_node"},"geometry":{"type":"Point","coordinates":[37.63831787158019,55.69738569110595]}},{"type":"Feature","properties":{"id":"v2_ch_13","variant_id":"v2","object_type":"heat_chamber","diameter":200,"cost":3000000.0,"diag_tie_in":false},"geometry":{"type":"Point","coordinates":[37.63398994772548,55.6997957101029]}},{"type":"Feature","properties":{"id":"v2_summary","object_type":"variant_summary","variant_id":"v2","rank":2,"construction_cost":256423295.95944566,"chamber_construction_cost":47000000,"existing_chamber_tie_in_count":0,"existing_chamber_tie_in_cost":0.0,"unconnected_penalty":338995000,"calculated_cost":595418295.9594457,"new_network_length":1805.6816029830904,"score":22.08875709581375,"unconnected_oks_ids":[2,5,10],"diag_description":"совместное подключение с минимумом присоединений к существующей сети; порядок целей: ближе к сети — раньше","diag_terminal_policy":"literal","diag_search_truncated":false,"diag_relaxed_final_approach":[],"diag_unconnected_reasons":{"10":"строгий финальный подход недоступен (§2.2) (ДУ 125)","5":"строгий финальный подход недоступен (§2.2) (ДУ 125)","2":"строгий финальный подход недоступен (§2.2) (ДУ 100)"}},"geometry":null}]}