{"type": "FeatureCollection", "features": [{"type": "Feature", "properties": {"id": 1, "object_type": "source"}, "geometry": {"type": "Point", "coordinates": [37.61142908896952, 55.68593748154912]}}, {"type": "Feature", "properties": {"id": 2, "object_type": "heat_network", "diameter": 400}, "geometry": {"type": "LineString", "coordinates": [[37.61142908896952, 55.68593748154912], [37.62096941979297, 55.68604501832966]]}}, {"type": "Feature", "properties": {"id": 10, "object_type": "restriction", "restriction_type": "oks"}, "geometry": {"type": "Polygon", "coordinates": [[[37.61593217955975, 55.68679710433705], [37.61640920593703, 55.68680248133809], [37.6164028615924, 55.686982137004875], [37.61592583302945, 55.686976759967834], [37.61593217955975, 55.68679710433705]]]}}, {"type": "Feature", "properties": {"id": 100, "object_type": "oks_connection_point", "flow_tph": 30.0}, "geometry": {"type": "Point", "coordinates": [37.616169106375565, 55.68684470698191]}}, {"type": "Feature", "properties": {"id": 21, "object_type": "restriction", "restriction_type": "tram_tracks"}, "geometry": {"type": "Polygon", "coordinates": [[[37.6114163549576, 55.68629679217167], [37.620956773203666, 55.68640433039212], [37.62095361151165, 55.68649415840415], [37.61141317140961, 55.6863866198237], [37.6114163549576, 55.68629679217167]]]}}]}