{"type": "FeatureCollection", "features": [{"type": "Feature", "properties": {"id": "src", "object_type": "source"}, "geometry": {"type": "Point", "coordinates": [37.61142908896952, 55.68593748154912]}}, {"type": "Feature", "properties": {"id": "p1", "object_type": "heat_network", "diameter": 400}, "geometry": {"type": "LineString", "coordinates": [[37.61142908896952, 55.68593748154912], [37.62096941979297, 55.68604501832966]]}}, {"type": "Feature", "properties": {"id": "b1", "object_type": "restriction", "restriction_type": "oks"}, "geometry": {"type": "Polygon", "coordinates": [[[37.61570318773176, 55.68652493171173], [37.6166572339294, 55.68653568560582], [37.61664771918621, 55.6868051691438], [37.61569366643167, 55.686794415141705], [37.61570318773176, 55.68652493171173]]]}}, {"type": "Feature", "properties": {"id": "a", "object_type": "oks_connection_point", "flow_tph": 20.0}, "geometry": {"type": "Point", "coordinates": [37.61586060869652, 55.68657163845098]}}, {"type": "Feature", "properties": {"id": "b", "object_type": "oks_connection_point", "flow_tph": 25.0}, "geometry": {"type": "Point", "coordinates": [37.616496640223495, 55.6865788077257]}}]}