{"type": "FeatureCollection", "features": [{"type": "Feature", "properties": {"id": 1, "object_type": "restriction", "restriction_type": "oks"}, "geometry": {"type": "Polygon", "coordinates": [[[37.72516807201993, 55.75906053894022], [37.725550415365, 55.75906450454977], [37.72554338358723, 55.75928009833061], [37.72516103813399, 55.759276132689166], [37.72516807201993, 55.75906053894022]]]}}, {"type": "Feature", "properties": {"id": 2, "object_type": "restriction", "restriction_type": "oks"}, "geometry": {"type": "Polygon", "coordinates": [[[37.72515752115516, 55.75938392956057], [37.725539867662505, 55.759387895217955], [37.725532835741355, 55.7596034889865], [37.72515048712578, 55.75959952329722], [37.72515752115516, 55.75938392956057]]]}}, {"type": "Feature", "properties": {"id": 3, "object_type": "restriction", "restriction_type": "oks"}, "geometry": {"type": "Polygon", "coordinates": [[[37.72574158707337, 55.7590664869086], [37.726123930561805, 55.75907045073443], [37.726116901946334, 55.7592860445631], [37.72573455634971, 55.75928208070539], [37.72574158707337, 55.7590664869086]]]}}, {"type": "Feature", "properties": {"id": 4, "object_type": "restriction", "restriction_type": "oks"}, "geometry": {"type": "Polygon", "coordinates": [[[37.72573104095203, 55.75938987760071], [37.72611338760276, 55.75939384147436], [37.726106358843964, 55.75960943529072], [37.725724010084996, 55.7596054713852], [37.72573104095203, 55.75938987760071]]]}}, {"type": "Feature", "properties": {"id": 5, "object_type": "restriction", "restriction_type": "oks"}, "geometry": {"type": "Polygon", "coordinates": [[[37.72514462536158, 55.75977918473818], [37.72552697573405, 55.75978315045404], [37.725519943637636, 55.759998744207536], [37.72513759115689, 55.75999477845978], [37.72514462536158, 55.75977918473818]]]}}, {"type": "Feature", "properties": {"id": 6, "object_type": "restriction", "restriction_type": "oks"}, "geometry": {"type": "Polygon", "coordinates": [[[37.72513407401868, 55.76010257531751], [37.72551642755358, 55.760106541081214], [37.72550939531377, 55.76032213482243], [37.72512703967055, 55.76031816902683], [37.72513407401868, 55.76010257531751]]]}}, {"type": "Feature", "properties": {"id": 7, "object_type": "restriction", "restriction_type": "oks"}, "geometry": {"type": "Polygon", "coordinates": [[[37.725718150956126, 55.75978513286603], [37.72610050147197, 55.7597890967981], [37.72609347253799, 55.76000469059944], [37.72571111991386, 55.760000726635475], [37.725718150956126, 55.75978513286603]]]}}, {"type": "Feature", "properties": {"id": 8, "object_type": "restriction", "restriction_type": "oks"}, "geometry": {"type": "Polygon", "coordinates": [[[37.72570760435688, 55.76010852351712], [37.72608995803516, 55.760112487497025], [37.72608292895785, 55.760328081286055], [37.72570057317123, 55.76032411727428], [37.72570760435688, 55.76010852351712]]]}}, {"type": "Feature", "properties": {"id": 9, "object_type": "restriction", "restriction_type": "oks"}, "geometry": {"type": "Polygon", "coordinates": [[[37.72512117764072, 55.76049783044498], [37.7255035350409, 55.76050179626716], [37.72549650262582, 55.76071738999334], [37.72511414311727, 55.76071342413927], [37.72512117764072, 55.76049783044498]]]}}, {"type": "Feature", "properties": {"id": 10, "object_type": "restriction", "restriction_type": "oks"}, "geometry": {"type": "Polygon", "coordinates": [[[37.725110625819674, 55.76082122098332], [37.725492986382434, 55.760825186853346], [37.72548595382394, 55.76104078056721], [37.72510359115277, 55.761036814665296], [37.725110625819674, 55.76082122098332]]]}}, {"type": "Feature", "properties": {"id": 11, "object_type": "restriction", "restriction_type": "oks"}, "geometry": {"type": "Polygon", "coordinates": [[[37.725694713776846, 55.76050377873229], [37.726077071320425, 55.76050774277065], [37.72607004206791, 55.76072333654464], [37.72568768241596, 55.760719372474405], [37.725694713776846, 55.76050377873229]]]}}, {"type": "Feature", "properties": {"id": 12, "object_type": "restriction", "restriction_type": "oks"}, "geometry": {"type": "Polygon", "coordinates": [[[37.725684166699665, 55.760827169342384], [37.72606652740583, 55.76083113342856], [37.726059498009974, 55.761046727190255], [37.72567713519539, 55.7610427630722], [37.725684166699665, 55.760827169342384]]]}}, {"type": "Feature", "properties": {"id": 13, "object_type": "restriction", "restriction_type": "oks"}, "geometry": {"type": "Polygon", "coordinates": [[[37.725097728857286, 55.761216476060675], [37.725480093285505, 55.761220441989174], [37.725473060551735, 55.76143603568801], [37.725090694015044, 55.76143206972761], [37.725097728857286, 55.761216476060675]]]}}, {"type": "Feature", "properties": {"id": 14, "object_type": "restriction", "restriction_type": "oks"}, "geometry": {"type": "Polygon", "coordinates": [[[37.725087176558056, 55.761539866558], [37.725469544149, 55.76154383253434], [37.72546251127182, 55.76175942622088], [37.725080141572356, 55.76175546021265], [37.725087176558056, 55.761539866558]]]}}, {"type": "Feature", "properties": {"id": 15, "object_type": "restriction", "restriction_type": "oks"}, "geometry": {"type": "Polygon", "coordinates": [[[37.725671275535476, 55.76122242450745], [37.7260536401071, 55.76122638865208], [37.726046610536045, 55.76144198239874], [37.725664243855945, 55.76143801822223], [37.725671275535476, 55.76122242450745]]]}}, {"type": "Feature", "properties": {"id": 16, "object_type": "restriction", "restriction_type": "oks"}, "geometry": {"type": "Polygon", "coordinates": [[[37.72566072798033, 55.76154581507653], [37.72604309571468, 55.76154977926899], [37.726036066000276, 55.76176537300335], [37.7256536961574, 55.761761408779016], [37.72566072798033, 55.76154581507653]]]}}, {"type": "Feature", "properties": {"id": 17, "object_type": "restriction", "restriction_type": "oks"}, "geometry": {"type": "Polygon", "coordinates": [[[37.72507427901122, 55.76193512158523], [37.72545665046779, 55.76193908762004], [37.725449617415315, 55.76215468129155], [37.72506724385017, 55.762150715224834], [37.72507427901122, 55.76193512158523]]]}}, {"type": "Feature", "properties": {"id": 18, "object_type": "restriction", "restriction_type": "oks"}, "geometry": {"type": "Polygon", "coordinates": [[[37.72506372623378, 55.762258512041555], [37.72544610085322, 55.76226247812423], [37.72543906765732, 55.76247807178341], [37.72505669092926, 55.76247410566884], [37.72506372623378, 55.762258512041555]]]}}, {"type": "Feature", "properties": {"id": 19, "object_type": "restriction", "restriction_type": "oks"}, "geometry": {"type": "Polygon", "coordinates": [[[37.72564783623194, 55.76194107019147], [37.72603020783193, 55.76194503444238], [37.72602317794231, 55.762160628161716], [37.72564080423375, 55.762156663878926], [37.72564783623194, 55.76194107019147]]]}}, {"type": "Feature", "properties": {"id": 20, "object_type": "restriction", "restriction_type": "oks"}, "geometry": {"type": "Polygon", "coordinates": [[[37.7256372881988, 55.76226446071957], [37.72601966296166, 55.7622684250183], [37.72601263292868, 55.7624840187253], [37.72563025605721, 55.76248005439469], [37.7256372881988, 55.76226446071957]]]}}, {"type": "Feature", "properties": {"id": 21, "object_type": "restriction", "restriction_type": "oks"}, "geometry": {"type": "Polygon", "coordinates": [[[37.72505082810243, 55.76265376701867], [37.72543320658769, 55.762657733159806], [37.72542617321648, 55.76287332680397], [37.725043792622564, 55.76286936063092], [37.72505082810243, 55.76265376701867]]]}}, {"type": "Feature", "properties": {"id": 22, "object_type": "restriction", "restriction_type": "oks"}, "geometry": {"type": "Polygon", "coordinates": [[[37.725040274846755, 55.76297715743397], [37.72542265649503, 55.762981123622964], [37.72541562298038, 55.763196717254836], [37.72503323922341, 55.763192751033934], [37.725040274846755, 55.76297715743397]]]}}, {"type": "Feature", "properties": {"id": 23, "object_type": "restriction", "restriction_type": "oks"}, "geometry": {"type": "Polygon", "coordinates": [[[37.72562439586618, 55.762659715784395], [37.72600677449485, 55.76266368014158], [37.725999744286646, 55.76287927383356], [37.725617363549304, 55.762875309444496], [37.72562439586618, 55.762659715784395]]]}}, {"type": "Feature", "properties": {"id": 24, "object_type": "restriction", "restriction_type": "oks"}, "geometry": {"type": "Polygon", "coordinates": [[[37.725613847355014, 55.76298310627146], [37.7259962291467, 55.76298707067647], [37.725989198795126, 55.76320266435617], [37.72560681489473, 55.76319869991928], [37.725613847355014, 55.76298310627146]]]}}, {"type": "Feature", "properties": {"id": 25, "object_type": "restriction", "restriction_type": "oks"}, "geometry": {"type": "Polygon", "coordinates": [[[37.72502737613088, 55.76337241236096], [37.72540976164513, 55.763376378608434], [37.72540272795518, 55.763591972225264], [37.725020340332165, 55.763588005945884], [37.72502737613088, 55.76337241236096]]]}}, {"type": "Feature", "properties": {"id": 26, "object_type": "restriction", "restriction_type": "oks"}, "geometry": {"type": "Polygon", "coordinates": [[[37.72501682239694, 55.76369580273527], [37.72539921107434, 55.763699769030595], [37.72539217724094, 55.76391536263512], [37.725009786454734, 55.76391139630788], [37.72501682239694, 55.76369580273527]]]}}, {"type": "Feature", "properties": {"id": 27, "object_type": "restriction", "restriction_type": "oks"}, "geometry": {"type": "Polygon", "coordinates": [[[37.72560095443812, 55.76337836128617], [37.7259833400958, 55.76338232574964], [37.72597630956899, 55.7635979194143], [37.72559392180255, 55.763593954918946], [37.72560095443812, 55.76337836128617]]]}}, {"type": "Feature", "properties": {"id": 28, "object_type": "restriction", "restriction_type": "oks"}, "geometry": {"type": "Polygon", "coordinates": [[[37.725590405448905, 55.763701751732256], [37.72597279426974, 55.76370571624355], [37.725965763599554, 55.76392130989589], [37.72558337266991, 55.763917345352716], [37.725590405448905, 55.763701751732256]]]}}, {"type": "Feature", "properties": {"id": 29, "object_type": "restriction", "restriction_type": "oks"}, "geometry": {"type": "Polygon", "coordinates": [[[37.725003923096494, 55.76409105761215], [37.72538631564006, 55.76409502396596], [37.725379281631334, 55.76431061755543], [37.724996886978914, 55.76430665116972], [37.725003923096494, 55.76409105761215]]]}}, {"type": "Feature", "properties": {"id": 30, "object_type": "restriction", "restriction_type": "oks"}, "geometry": {"type": "Polygon", "coordinates": [[[37.724993368884256, 55.76441444794544], [37.725375764591114, 55.764418414347105], [37.72536873043894, 55.764634007924286], [37.72498633262318, 55.76463004149072], [37.724993368884256, 55.76441444794544]]]}}, {"type": "Feature", "properties": {"id": 31, "object_type": "restriction", "restriction_type": "oks"}, "geometry": {"type": "Polygon", "coordinates": [[[37.725577511947705, 55.76409700669684], [37.725959904634706, 55.76410097126659], [37.72595287378927, 55.764316564903915], [37.725570478993404, 55.76431260030227], [37.725577511947705, 55.76409700669684]]]}}, {"type": "Feature", "properties": {"id": 32, "object_type": "restriction", "restriction_type": "oks"}, "geometry": {"type": "Polygon", "coordinates": [[[37.72556696248041, 55.764420397101915], [37.7259493583307, 55.76442436171949], [37.72594232734188, 55.764639955344514], [37.72555992938268, 55.76463599069504], [37.72556696248041, 55.764420397101915]]]}}, {"type": "Feature", "properties": {"id": 33, "object_type": "restriction", "restriction_type": "oks"}, "geometry": {"type": "Polygon", "coordinates": [[[37.72644255020849, 55.75907375301423], [37.72682489387207, 55.759077714659945], [37.72681786912162, 55.759293308547015], [37.72643552334984, 55.75928934686946], [37.72644255020849, 55.75907375301423]]]}}, {"type": "Feature", "properties": {"id": 34, "object_type": "restriction", "restriction_type": "oks"}, "geometry": {"type": "Polygon", "coordinates": [[[37.7264320098847, 55.759397143794004], [37.72681435671058, 55.7594011054875], [37.72680733181688, 55.75961669936228], [37.726424982882754, 55.75961273763692], [37.7264320098847, 55.759397143794004]]]}}, {"type": "Feature", "properties": {"id": 35, "object_type": "restriction", "restriction_type": "oks"}, "geometry": {"type": "Polygon", "coordinates": [[[37.727016065739676, 55.75907969503687], [37.72739840954649, 55.759083654898845], [37.72739138795833, 55.75929924883371], [37.72700904204332, 55.759295288939875], [37.727016065739676, 55.75907969503687]]]}}, {"type": "Feature", "properties": {"id": 36, "object_type": "restriction", "restriction_type": "oks"}, "geometry": {"type": "Polygon", "coordinates": [[[37.72700553015933, 55.759403085888316], [37.72738787712845, 55.75940704579806], [37.727380855397115, 55.759622639720625], [37.72699850631975, 55.759618679779024], [37.72700553015933, 55.759403085888316]]]}}, {"type": "Feature", "properties": {"id": 37, "object_type": "restriction", "restriction_type": "oks"}, "geometry": {"type": "Polygon", "coordinates": [[[37.72641912697484, 55.75979239916644], [37.72680147766584, 55.75979636091835], [37.726794452597055, 55.76001195477811], [37.726412099797756, 55.76000799299433], [37.72641912697484, 55.75979239916644]]]}}, {"type": "Feature", "properties": {"id": 38, "object_type": "restriction", "restriction_type": "oks"}, "geometry": {"type": "Polygon", "coordinates": [[[37.7264085861734, 55.7601157899052], [37.726790940026845, 55.760119751704906], [37.7267839148148, 55.760335345552356], [37.72640155885303, 55.76033138372078], [37.7264085861734, 55.7601157899052]]]}}, {"type": "Feature", "properties": {"id": 39, "object_type": "restriction", "restriction_type": "oks"}, "geometry": {"type": "Polygon", "coordinates": [[[37.726992653047155, 55.75979834134837], [37.727375003881406, 55.759802301316505], [37.72736798197506, 55.760017895224024], [37.72698562903252, 55.76001393522405], [37.726992653047155, 55.75979834134837]]]}}, {"type": "Feature", "properties": {"id": 40, "object_type": "restriction", "restriction_type": "oks"}, "geometry": {"type": "Polygon", "coordinates": [[[37.72698211698939, 55.760121732158815], [37.72736447098608, 55.76012569217471], [37.727357448936544, 55.76034128606995], [37.72697509283151, 55.760337326022196], [37.72698211698939, 55.760121732158815]]]}}, {"type": "Feature", "properties": {"id": 41, "object_type": "restriction", "restriction_type": "oks"}, "geometry": {"type": "Polygon", "coordinates": [[[37.72639570267973, 55.76051104522752], [37.72677806039848, 55.76051500708563], [37.72677103501134, 55.760730600918066], [37.72638867518422, 55.76072663902808], [37.72639570267973, 55.76051104522752]]]}}, {"type": "Feature", "properties": {"id": 42, "object_type": "restriction", "restriction_type": "oks"}, "geometry": {"type": "Polygon", "coordinates": [[[37.72638516140063, 55.760834435925275], [37.72676752228196, 55.76083839783119], [37.72676049675155, 55.76105399165131], [37.72637813376179, 55.76105002971353], [37.72638516140063, 55.760834435925275]]]}}, {"type": "Feature", "properties": {"id": 43, "object_type": "restriction", "restriction_type": "oks"}, "geometry": {"type": "Polygon", "coordinates": [[[37.726969239293666, 55.76051698756874], [37.72735159715567, 55.76052094764305], [37.72734457493111, 55.76073654152324], [37.72696221496072, 55.760732581417095], [37.726969239293666, 55.76051698756874]]]}}, {"type": "Feature", "properties": {"id": 44, "object_type": "restriction", "restriction_type": "oks"}, "geometry": {"type": "Polygon", "coordinates": [[[37.726958702758445, 55.76084037833819], [37.72734106378304, 55.76084433846026], [37.727334041415276, 55.76105993232816], [37.726951678282255, 55.76105597217425], [37.726958702758445, 55.76084037833819]]]}}, {"type": "Feature", "properties": {"id": 45, "object_type": "restriction", "restriction_type": "oks"}, "geometry": {"type": "Polygon", "coordinates": [[[37.72637227732312, 55.76122969119748], [37.72675464206993, 55.76123365316182], [37.72674761636442, 55.7614492469669], [37.72636524950913, 55.761445284970705], [37.72637227732312, 55.76122969119748]]]}}, {"type": "Feature", "properties": {"id": 46, "object_type": "restriction", "restriction_type": "oks"}, "geometry": {"type": "Polygon", "coordinates": [[[37.72636173556631, 55.76155308185423], [37.72674410347585, 55.76155704386637], [37.726737077627064, 55.761772637659156], [37.726354707609005, 55.76176867561516], [37.72636173556631, 55.76155308185423]]]}}, {"type": "Feature", "properties": {"id": 47, "object_type": "restriction", "restriction_type": "oks"}, "geometry": {"type": "Polygon", "coordinates": [[[37.726945824479145, 55.761235633698014], [37.72732818936922, 55.761239593878486], [37.72732116682643, 55.76145518773135], [37.726938799827884, 55.76145122751903], [37.726945824479145, 55.761235633698014]]]}}, {"type": "Feature", "properties": {"id": 48, "object_type": "restriction", "restriction_type": "oks"}, "geometry": {"type": "Polygon", "coordinates": [[[37.72693528746644, 55.76155902442647], [37.727317655519236, 55.761562984654695], [37.72731063283324, 55.76177857849527], [37.72692826267191, 55.76177461823518], [37.72693528746644, 55.76155902442647]]]}}, {"type": "Feature", "properties": {"id": 49, "object_type": "restriction", "restriction_type": "oks"}, "geometry": {"type": "Polygon", "coordinates": [[[37.726348850904934, 55.76194833707632], [37.726731222680115, 55.76195229914688], [37.726724196656214, 55.76216789292463], [37.726341822772454, 55.76216393082221], [37.726348850904934, 55.76194833707632]]]}}, {"type": "Feature", "properties": {"id": 50, "object_type": "restriction", "restriction_type": "oks"}, "geometry": {"type": "Polygon", "coordinates": [[[37.726338308670385, 55.76227172769208], [37.72672068360844, 55.76227568981044], [37.72671365744126, 55.762491283575876], [37.72633128039459, 55.76248732142567], [37.726338308670385, 55.76227172769208]]]}}, {"type": "Feature", "properties": {"id": 51, "object_type": "restriction", "restriction_type": "oks"}, "geometry": {"type": "Polygon", "coordinates": [[[37.72692240860353, 55.761954279736166], [37.72730478052198, 55.76195824002281], [37.72729775766095, 55.76217383384834], [37.726915383633916, 55.762169873529864], [37.72692240860353, 55.761954279736166]]]}}, {"type": "Feature", "properties": {"id": 52, "object_type": "restriction", "restriction_type": "oks"}, "geometry": {"type": "Polygon", "coordinates": [[[37.7269118711133, 55.76227767042363], [37.727294246194624, 55.76228163075803], [37.72728722319038, 55.76249722457127], [37.72690484600042, 55.762493264205006], [37.7269118711133, 55.76227767042363]]]}}, {"type": "Feature", "properties": {"id": 53, "object_type": "restriction", "restriction_type": "oks"}, "geometry": {"type": "Polygon", "coordinates": [[[37.726325423425095, 55.76266698286406], [37.72670780222897, 55.76267094504083], [37.72670077588666, 55.76288653879125], [37.726318394974115, 55.762882576582605], [37.726325423425095, 55.76266698286406]]]}}, {"type": "Feature", "properties": {"id": 54, "object_type": "restriction", "restriction_type": "oks"}, "geometry": {"type": "Polygon", "coordinates": [[[37.72631488071279, 55.7629903734388], [37.726697262679686, 55.76299433566337], [37.72669023619409, 55.763209929401505], [37.726307852118474, 55.763205967145055], [37.72631488071279, 55.7629903734388]]]}}, {"type": "Feature", "properties": {"id": 55, "object_type": "restriction", "restriction_type": "oks"}, "geometry": {"type": "Polygon", "coordinates": [[[37.72689899166674, 55.762672925683226], [37.7272813706139, 55.76267688607604], [37.727274347434594, 55.762892479874246], [37.726891966378766, 55.76288851944958], [37.72689899166674, 55.762672925683226]]]}}, {"type": "Feature", "properties": {"id": 56, "object_type": "restriction", "restriction_type": "oks"}, "geometry": {"type": "Polygon", "coordinates": [[[37.72688845369896, 55.76299631632968], [37.727270835809136, 55.76300027677026], [37.72726381248661, 55.76321587055616], [37.72688142826772, 55.763211910083726], [37.72688845369896, 55.76299631632968]]]}}, {"type": "Feature", "properties": {"id": 57, "object_type": "restriction", "restriction_type": "oks"}, "geometry": {"type": "Polygon", "coordinates": [[[37.72630199488355, 55.76338562856067], [37.72668438071645, 55.763389590843666], [37.7266773540557, 55.76360518456676], [37.72629496611404, 55.76360122225189], [37.72630199488355, 55.76338562856067]]]}}, {"type": "Feature", "properties": {"id": 58, "object_type": "restriction", "restriction_type": "oks"}, "geometry": {"type": "Polygon", "coordinates": [[[37.726291451693456, 55.76370901909443], [37.72667384068951, 55.76371298142522], [37.726666813885466, 55.763928575136006], [37.7262844227806, 55.76392461277333], [37.726291451693456, 55.76370901909443]]]}}, {"type": "Feature", "properties": {"id": 59, "object_type": "restriction", "restriction_type": "oks"}, "geometry": {"type": "Polygon", "coordinates": [[[37.72687557366872, 55.76339157153917], [37.727257959644895, 55.763395532038146], [37.72725093614731, 55.76361112580903], [37.726868548062356, 55.76360716527818], [37.72687557366872, 55.76339157153917]]]}}, {"type": "Feature", "properties": {"id": 60, "object_type": "restriction", "restriction_type": "oks"}, "geometry": {"type": "Polygon", "coordinates": [[[37.72686503522336, 55.763714962144626], [37.72724742436271, 55.76371892269139], [37.72724040072188, 55.76393451644994], [37.72685800947373, 55.76393055587132], [37.72686503522336, 55.763714962144626]]]}}, {"type": "Feature", "properties": {"id": 61, "object_type": "restriction", "restriction_type": "oks"}, "geometry": {"type": "Polygon", "coordinates": [[[37.726278565280225, 55.764104274166165], [37.72666095814245, 55.7641082365554], [37.72665393116326, 55.76432383025116], [37.72627153619218, 55.76431986783005], [37.726278565280225, 55.764104274166165]]]}}, {"type": "Feature", "properties": {"id": 62, "object_type": "restriction", "restriction_type": "oks"}, "geometry": {"type": "Polygon", "coordinates": [[[37.72626802161231, 55.764427664658925], [37.72665041763784, 55.76443162709595], [37.72664339051534, 55.76464722077941], [37.72626099238091, 55.7646432583105], [37.72626802161231, 55.764427664658925]]]}}, {"type": "Feature", "properties": {"id": 63, "object_type": "restriction", "restriction_type": "oks"}, "geometry": {"type": "Polygon", "coordinates": [[[37.7268521546094, 55.764110217304], [37.72723454761492, 55.76411417790916], [37.72722752379903, 55.764329771652704], [37.72684512868464, 55.764325811015674], [37.7268521546094, 55.764110217304]]]}}, {"type": "Feature", "properties": {"id": 64, "object_type": "restriction", "restriction_type": "oks"}, "geometry": {"type": "Polygon", "coordinates": [[[37.72684161568643, 55.76443360786845], [37.72722401185526, 55.7644375685214], [37.72721698789613, 55.76465316225264], [37.72683458961839, 55.764649201567835], [37.72684161568643, 55.76443360786845]]]}}, {"type": "Feature", "properties": {"id": 65, "object_type": "restriction", "restriction_type": "oks"}, "geometry": {"type": "Polygon", "coordinates": [[[37.72771702945842, 55.75908695387545], [37.728099373440216, 55.7590909115573], [37.72809235571708, 55.75930650555053], [37.72771000962709, 55.75930254783684], [37.72771702945842, 55.75908695387545]]]}}, {"type": "Feature", "properties": {"id": 66, "object_type": "restriction", "restriction_type": "oks"}, "geometry": {"type": "Polygon", "coordinates": [[[37.727706499675634, 55.75941034481446], [37.72808884681974, 55.75941430254407], [37.7280818289535, 55.759629896525], [37.72769947970116, 55.75962593876354], [37.727706499675634, 55.75941034481446]]]}}, {"type": "Feature", "properties": {"id": 67, "object_type": "restriction", "restriction_type": "oks"}, "geometry": {"type": "Polygon", "coordinates": [[[37.72829054546688, 55.75909288995232], [37.728672889591756, 55.759096845850436], [37.728665875030934, 55.75931243989139], [37.72828352879785, 55.75930848396144], [37.72829054546688, 55.75909288995232]]]}}, {"type": "Feature", "properties": {"id": 68, "object_type": "restriction", "restriction_type": "oks"}, "geometry": {"type": "Polygon", "coordinates": [[[37.72828002042757, 55.75941628096293], [37.72866236771476, 55.75942023690879], [37.72865535301089, 55.759635830937434], [37.728273003615456, 55.759631874959766], [37.72828002042757, 55.75941628096293]]]}}, {"type": "Feature", "properties": {"id": 69, "object_type": "restriction", "restriction_type": "oks"}, "geometry": {"type": "Polygon", "coordinates": [[[37.72769362964953, 55.75980560038155], [37.728075980658765, 55.75980955816951], [37.72806896261762, 55.7600251521354], [37.72768660950009, 55.76002119431561], [37.72769362964953, 55.75980560038155]]]}}, {"type": "Feature", "properties": {"id": 70, "object_type": "restriction", "restriction_type": "oks"}, "geometry": {"type": "Polygon", "coordinates": [[[37.72768309938959, 55.76012899127956], [37.72806545356127, 55.76013294911527], [37.728058435377015, 55.76034854306886], [37.727676079096994, 55.76034458520133], [37.72768309938959, 55.76012899127956]]]}}, {"type": "Feature", "properties": {"id": 71, "object_type": "restriction", "restriction_type": "oks"}, "geometry": {"type": "Polygon", "coordinates": [[[37.728267156199166, 55.75981153661755], [37.72864950735149, 55.759815492621726], [37.728642492472794, 55.76003108663535], [37.72826013921216, 55.76002713059934], [37.728267156199166, 55.75981153661755]]]}}, {"type": "Feature", "properties": {"id": 72, "object_type": "restriction", "restriction_type": "oks"}, "geometry": {"type": "Polygon", "coordinates": [[[37.72825663068289, 55.760134927587174], [37.72863898499769, 55.76013888363908], [37.728631969975936, 55.760354477640405], [37.728249613552805, 55.760350521556674], [37.72825663068289, 55.760134927587174]]]}}, {"type": "Feature", "properties": {"id": 73, "object_type": "restriction", "restriction_type": "oks"}, "geometry": {"type": "Polygon", "coordinates": [[[37.72767022878026, 55.76052424679652], [37.72805258681725, 55.76052820469059], [37.72804556845808, 55.76074379862916], [37.72766320831269, 55.760739840703266], [37.72767022878026, 55.76052424679652]]]}}, {"type": "Feature", "properties": {"id": 74, "object_type": "restriction", "restriction_type": "oks"}, "geometry": {"type": "Polygon", "coordinates": [[[37.72765969804312, 55.76084763765355], [37.72804205924271, 55.76085159559536], [37.72803504074041, 55.761067189521626], [37.72765267743239, 55.76106323154798], [37.72765969804312, 55.76084763765355]]]}}, {"type": "Feature", "properties": {"id": 75, "object_type": "restriction", "restriction_type": "oks"}, "geometry": {"type": "Polygon", "coordinates": [[[37.72824376587153, 55.76053018319166], [37.72862612405163, 55.7605341393019], [37.72861910885505, 55.7607497332882], [37.72823674856655, 55.76074577714615], [37.72824376587153, 55.76053018319166]]]}}, {"type": "Feature", "properties": {"id": 76, "object_type": "restriction", "restriction_type": "oks"}, "geometry": {"type": "Polygon", "coordinates": [[[37.728233239878286, 55.760853574120304], [37.72861560122099, 55.760857530278265], [37.72860858588135, 55.76107312425226], [37.7282262224302, 55.76106916806248], [37.728233239878286, 55.760853574120304]]]}}, {"type": "Feature", "properties": {"id": 77, "object_type": "restriction", "restriction_type": "oks"}, "geometry": {"type": "Polygon", "coordinates": [[[37.72764682685054, 55.76124289312041], [37.72802919191561, 55.76124685112059], [37.72802217323838, 55.76146244503182], [37.72763980606482, 55.761458486999814], [37.72764682685054, 55.76124289312041]]]}}, {"type": "Feature", "properties": {"id": 78, "object_type": "restriction", "restriction_type": "oks"}, "geometry": {"type": "Polygon", "coordinates": [[[37.72763629563617, 55.76156628393644], [37.72801866386398, 55.761570241984366], [37.72801164504362, 55.7617858358833], [37.72762927470728, 55.761781877803536], [37.72763629563617, 55.76156628393644]]]}}, {"type": "Feature", "properties": {"id": 79, "object_type": "restriction", "restriction_type": "oks"}, "geometry": {"type": "Polygon", "coordinates": [[[37.728220374483925, 55.76124882967471], [37.72860273969212, 55.761252785890996], [37.728595724177616, 55.761468379849966], [37.72821335686094, 55.76146442360185], [37.728220374483925, 55.76124882967471]]]}}, {"type": "Feature", "properties": {"id": 80, "object_type": "restriction", "restriction_type": "oks"}, "geometry": {"type": "Polygon", "coordinates": [[[37.72820984801367, 55.761572220562336], [37.728592216384605, 55.76157617682636], [37.72858520072704, 55.76179177077304], [37.728202830247575, 55.761787814477195], [37.72820984801367, 55.761572220562336]]]}}, {"type": "Feature", "properties": {"id": 81, "object_type": "restriction", "restriction_type": "oks"}, "geometry": {"type": "Polygon", "coordinates": [[[37.727623423860294, 55.76196153935319], [37.72800579595376, 55.76196549745948], [37.72799877695846, 55.762181091343386], [37.72761640275641, 55.76217713320526], [37.727623423860294, 55.76196153935319]]]}}, {"type": "Feature", "properties": {"id": 82, "object_type": "restriction", "restriction_type": "oks"}, "geometry": {"type": "Polygon", "coordinates": [[[37.72761289216867, 55.762284930128224], [37.72799526742502, 55.762288888282264], [37.72798824828658, 55.76250448215386], [37.72760587092161, 55.76250052396799], [37.72761289216867, 55.762284930128224]]]}}, {"type": "Feature", "properties": {"id": 83, "object_type": "restriction", "restriction_type": "oks"}, "geometry": {"type": "Polygon", "coordinates": [[[37.72819698203629, 55.76196747606663], [37.72857935427288, 55.76197143238899], [37.72857233844045, 55.76218702632064], [37.72818996409527, 55.762183069966454], [37.72819698203629, 55.76196747606663]]]}}, {"type": "Feature", "properties": {"id": 84, "object_type": "restriction", "restriction_type": "oks"}, "geometry": {"type": "Polygon", "coordinates": [[[37.72818645508899, 55.7622908669133], [37.72856883048847, 55.76229482328338], [37.72856181451297, 55.76251041720271], [37.72817943700486, 55.7625064608008], [37.72818645508899, 55.7622908669133]]]}}, {"type": "Feature", "properties": {"id": 85, "object_type": "restriction", "restriction_type": "oks"}, "geometry": {"type": "Polygon", "coordinates": [[[37.72760001980947, 55.762680185494865], [37.72798239893165, 55.762684143707276], [37.727975379618265, 55.76289973756385], [37.727592998387394, 55.762895779319614], [37.72760001980947, 55.762680185494865]]]}}, {"type": "Feature", "properties": {"id": 86, "object_type": "restriction", "restriction_type": "oks"}, "geometry": {"type": "Polygon", "coordinates": [[[37.72758948764056, 55.7630035762289], [37.727971869925774, 55.76300753448905], [37.727964850469235, 55.76322312833333], [37.727582466075305, 55.76321917004134], [37.72758948764056, 55.7630035762289]]]}}, {"type": "Feature", "properties": {"id": 87, "object_type": "restriction", "restriction_type": "oks"}, "geometry": {"type": "Polygon", "coordinates": [[[37.728173588528534, 55.76268612236748], [37.72855596779385, 55.762690078795906], [37.728548951643475, 55.762905672700214], [37.72816657026948, 55.762901716239966], [37.728173588528534, 55.76268612236748]]]}}, {"type": "Feature", "properties": {"id": 88, "object_type": "restriction", "restriction_type": "oks"}, "geometry": {"type": "Polygon", "coordinates": [[[37.72816306110417, 55.76300951317313], [37.72854544353252, 55.763013469649295], [37.72853842723906, 55.763229063541296], [37.72815604270199, 55.76322510703333], [37.72816306110417, 55.76300951317313]]]}}, {"type": "Feature", "properties": {"id": 89, "object_type": "restriction", "restriction_type": "oks"}, "geometry": {"type": "Polygon", "coordinates": [[[37.727576614697995, 55.763398831545445], [37.72795900084921, 55.76340278986396], [37.72795198121771, 55.763618383693206], [37.727569592957714, 55.76361442534285], [37.727576614697995, 55.763398831545445]]]}}, {"type": "Feature", "properties": {"id": 90, "object_type": "restriction", "restriction_type": "oks"}, "geometry": {"type": "Polygon", "coordinates": [[[37.72756608205177, 55.76372222223848], [37.72794847136616, 55.763726180604756], [37.727941451591505, 55.763941774421696], [37.727559060168296, 55.763937816023585], [37.72756608205177, 55.76372222223848]]]}}, {"type": "Feature", "properties": {"id": 91, "object_type": "restriction", "restriction_type": "oks"}, "geometry": {"type": "Polygon", "coordinates": [[[37.728150193960616, 55.76340476857721], [37.72853258025497, 55.7634087251117], [37.72852556378663, 55.7636243189887], [37.728143175383494, 55.76362036242238], [37.728150193960616, 55.76340476857721]]]}}, {"type": "Feature", "properties": {"id": 92, "object_type": "restriction", "restriction_type": "oks"}, "geometry": {"type": "Polygon", "coordinates": [[[37.72813966605915, 55.76372815934188], [37.728522055516684, 55.763732115924114], [37.72851503890525, 55.76394770978879], [37.72813264733889, 55.763943753174736], [37.72813966605915, 55.76372815934188]]]}}, {"type": "Feature", "properties": {"id": 93, "object_type": "restriction", "restriction_type": "oks"}, "geometry": {"type": "Polygon", "coordinates": [[[37.727553208525805, 55.764117477504925], [37.72793560170638, 55.76412143592956], [37.727928581756736, 55.764337029731465], [37.72754618646729, 55.764333071275], [37.727553208525805, 55.764117477504925]]]}}, {"type": "Feature", "properties": {"id": 94, "object_type": "restriction", "restriction_type": "oks"}, "geometry": {"type": "Polygon", "coordinates": [[[37.72754267540224, 55.76444086815697], [37.72792507174613, 55.764444826629365], [37.72791805165332, 55.76466042041897], [37.727535653200526, 55.76465646191475], [37.72754267540224, 55.76444086815697]]]}}, {"type": "Feature", "properties": {"id": 95, "object_type": "restriction", "restriction_type": "oks"}, "geometry": {"type": "Polygon", "coordinates": [[[37.728126798332454, 55.76412341469587], [37.72850919165617, 55.764127371336436], [37.728502174869845, 55.76434296518608], [37.72811977943725, 55.76433900851368], [37.728126798332454, 55.76412341469587]]]}}, {"type": "Feature", "properties": {"id": 96, "object_type": "restriction", "restriction_type": "oks"}, "geometry": {"type": "Polygon", "coordinates": [[[37.72811626995386, 55.76444680541953], [37.7284986664409, 55.76445076210785], [37.72849164951147, 55.7646663559452], [37.728109250915516, 55.76466239922507], [37.72811626995386, 55.76444680541953]]]}}, {"type": "Feature", "properties": {"id": 97, "object_type": "restriction", "restriction_type": "oks"}, "geometry": {"type": "Polygon", "coordinates": [[[37.728991509768676, 55.75910014152383], [37.72937385406835, 55.759104095241845], [37.72936684337257, 55.75931968934109], [37.72898449696468, 55.75931573559128], [37.728991509768676, 55.75910014152383]]]}}, {"type": "Feature", "properties": {"id": 98, "object_type": "restriction", "restriction_type": "oks"}, "geometry": {"type": "Polygon", "coordinates": [[[37.728980990526935, 55.75942353262194], [37.729363337988936, 55.759427486387644], [37.729356327150185, 55.759643080474596], [37.72897397757994, 55.7596391266771], [37.728980990526935, 55.75942353262194]]]}}, {"type": "Feature", "properties": {"id": 99, "object_type": "restriction", "restriction_type": "oks"}, "geometry": {"type": "Polygon", "coordinates": [[[37.72956502625393, 55.75910607165491], [37.72994737069656, 55.75911002358919], [37.72994036316309, 55.75932561773612], [37.72955801661225, 55.75932166577006], [37.72956502625393, 55.75910607165491]]]}}, {"type": "Feature", "properties": {"id": 100, "object_type": "restriction", "restriction_type": "oks"}, "geometry": {"type": "Polygon", "coordinates": [[[37.72955451175567, 55.759429462824556], [37.72993685936062, 55.759433414806516], [37.72992985168425, 55.75964900894113], [37.729547501971055, 55.759645056927404], [37.72955451175567, 55.759429462824556]]]}}, {"type": "Feature", "properties": {"id": 101, "object_type": "restriction", "restriction_type": "oks"}, "geometry": {"type": "Polygon", "coordinates": [[[37.72896813338462, 55.75981878838347], [37.72935048471176, 55.75982274220748], [37.72934347369828, 55.76003833627939], [37.72896112026284, 55.7600343824236], [37.72896813338462, 55.75981878838347]]]}}, {"type": "Feature", "properties": {"id": 102, "object_type": "restriction", "restriction_type": "oks"}, "geometry": {"type": "Polygon", "coordinates": [[[37.72895761366619, 55.76014217944058], [37.7293399681558, 55.76014613331227], [37.72933295699934, 55.76036172737192], [37.7289506004014, 55.760357773468414], [37.72895761366619, 55.76014217944058]]]}}, {"type": "Feature", "properties": {"id": 103, "object_type": "restriction", "restriction_type": "oks"}, "geometry": {"type": "Polygon", "coordinates": [[[37.72954166041107, 55.759824718673535], [37.729924011881174, 55.759828670713745], [37.72991700403014, 55.76004426483336], [37.72953465045174, 55.76004031276134], [37.72954166041107, 55.759824718673535]]]}}, {"type": "Feature", "properties": {"id": 104, "object_type": "restriction", "restriction_type": "oks"}, "geometry": {"type": "Polygon", "coordinates": [[[37.72953114543634, 55.76014810980218], [37.7299135000689, 55.76015206189008], [37.729906492074974, 55.76036765599738], [37.72952413533406, 55.760363703877715], [37.72953114543634, 55.76014810980218]]]}}, {"type": "Feature", "properties": {"id": 105, "object_type": "restriction", "restriction_type": "oks"}, "geometry": {"type": "Polygon", "coordinates": [[[37.72894475594124, 55.760537435152], [37.729327114296154, 55.760541389082], [37.72932010296496, 55.760756983126605], [37.72893774250164, 55.7607530291648], [37.72894475594124, 55.760537435152]]]}}, {"type": "Feature", "properties": {"id": 106, "object_type": "restriction", "restriction_type": "oks"}, "geometry": {"type": "Polygon", "coordinates": [[[37.728934235746095, 55.76086082616813], [37.72931659726362, 55.76086478014583], [37.729309585789444, 55.76108037417812], [37.728927222163485, 55.76107642016863], [37.728934235746095, 55.76086082616813]]]}}, {"type": "Feature", "properties": {"id": 107, "object_type": "restriction", "restriction_type": "oks"}, "geometry": {"type": "Polygon", "coordinates": [[[37.72951829350937, 55.76054336560104], [37.72990065200725, 55.76054731774721], [37.72989364383866, 55.7607629118395], [37.72951128323237, 55.760758959661544], [37.72951829350937, 55.76054336560104]]]}}, {"type": "Feature", "properties": {"id": 108, "object_type": "restriction", "restriction_type": "oks"}, "geometry": {"type": "Polygon", "coordinates": [[[37.72950777805813, 55.760866756688706], [37.72989013971863, 55.76087070888256], [37.729883131407114, 55.761086302962546], [37.72950076763818, 55.76108235073691], [37.72950777805813, 55.760866756688706]]]}}, {"type": "Feature", "properties": {"id": 109, "object_type": "restriction", "restriction_type": "oks"}, "geometry": {"type": "Polygon", "coordinates": [[[37.72892137743846, 55.76125608182945], [37.729303742821486, 55.76126003586546], [37.72929673117255, 55.761475629882725], [37.72891436368104, 55.76147167581494], [37.72892137743846, 55.76125608182945]]]}}, {"type": "Feature", "properties": {"id": 110, "object_type": "restriction", "restriction_type": "oks"}, "geometry": {"type": "Polygon", "coordinates": [[[37.728910856766575, 55.76157947280459], [37.72929322531234, 55.76158342688829], [37.729286213520425, 55.76179902089327], [37.72890384286612, 55.761795066777765], [37.728910856766575, 55.76157947280459]]]}}, {"type": "Feature", "properties": {"id": 111, "object_type": "restriction", "restriction_type": "oks"}, "geometry": {"type": "Polygon", "coordinates": [[[37.72949492554874, 55.76126201243749], [37.729877291074736, 55.76126596468961], [37.72987028258855, 55.761481558754575], [37.729487914954056, 55.761477606470656], [37.72949492554874, 55.76126201243749]]]}}, {"type": "Feature", "properties": {"id": 112, "object_type": "restriction", "restriction_type": "oks"}, "geometry": {"type": "Polygon", "coordinates": [[[37.72948440962098, 55.761585403484176], [37.72986677830973, 55.76158935578397], [37.72985976968061, 55.76180494983663], [37.72947739888333, 55.76180099750505], [37.72948440962098, 55.761585403484176]]]}}, {"type": "Feature", "properties": {"id": 113, "object_type": "restriction", "restriction_type": "oks"}, "geometry": {"type": "Polygon", "coordinates": [[[37.72889799787624, 55.76197472841581], [37.72928037028768, 55.76197868255782], [37.729273358320995, 55.76219427654777], [37.728890983800966, 55.762190322373954], [37.72889799787624, 55.76197472841581]]]}}, {"type": "Feature", "properties": {"id": 114, "object_type": "restriction", "restriction_type": "oks"}, "geometry": {"type": "Polygon", "coordinates": [[[37.728887476727564, 55.762298119349964], [37.7292698523019, 55.76230207353968], [37.72926284019222, 55.762517667517315], [37.72888046250926, 55.76251371329581], [37.728887476727564, 55.762298119349964]]]}}, {"type": "Feature", "properties": {"id": 115, "object_type": "restriction", "restriction_type": "oks"}, "geometry": {"type": "Polygon", "coordinates": [[[37.72947155652915, 55.761980659182846], [37.72985392908357, 55.76198461154092], [37.72984692027977, 55.76220020557855], [37.72946454561676, 55.76219625318869], [37.72947155652915, 55.761980659182846]]]}}, {"type": "Feature", "properties": {"id": 116, "object_type": "restriction", "restriction_type": "oks"}, "geometry": {"type": "Polygon", "coordinates": [[[37.72946104012482, 55.76230405018854], [37.72984341584213, 55.7623080025943], [37.7298364068954, 55.76252359661963], [37.72945402906945, 55.762519644182085], [37.72946104012482, 55.76230405018854]]]}}, {"type": "Feature", "properties": {"id": 117, "object_type": "restriction", "restriction_type": "oks"}, "geometry": {"type": "Polygon", "coordinates": [[[37.72887461725448, 55.76269337491109], [37.72925699669466, 55.76269732915911], [37.7292499844102, 55.762912923121725], [37.72886760286135, 55.76290896884191], [37.72887461725448, 55.76269337491109]]]}}, {"type": "Feature", "properties": {"id": 118, "object_type": "restriction", "restriction_type": "oks"}, "geometry": {"type": "Polygon", "coordinates": [[[37.728864095629014, 55.76301676580423], [37.72924647823223, 55.76302072009996], [37.72923946580476, 55.76323631405029], [37.728857081092826, 55.763232359722764], [37.728864095629014, 55.76301676580423]]]}}, {"type": "Feature", "properties": {"id": 119, "object_type": "restriction", "restriction_type": "oks"}, "geometry": {"type": "Polygon", "coordinates": [[[37.729448186450504, 55.762699305837124], [37.72983056603366, 55.762703258301144], [37.72982355691223, 55.76291885231146], [37.72944117522038, 55.762914899815634], [37.729448186450504, 55.762699305837124]]]}}, {"type": "Feature", "properties": {"id": 120, "object_type": "restriction", "restriction_type": "oks"}, "geometry": {"type": "Polygon", "coordinates": [[[37.72943766956958, 55.76302269680182], [37.72982005231578, 55.76302664931354], [37.72981304305141, 55.76324224331155], [37.72943065819648, 55.76323829076805], [37.72943766956958, 55.76302269680182]]]}}, {"type": "Feature", "properties": {"id": 121, "object_type": "restriction", "restriction_type": "oks"}, "geometry": {"type": "Polygon", "coordinates": [[[37.72885123557315, 55.76341202131526], [37.72923362204238, 55.76341597566928], [37.72922660944012, 55.7636315696046], [37.728844220862115, 55.76362761521876], [37.72885123557315, 55.76341202131526]]]}}, {"type": "Feature", "properties": {"id": 122, "object_type": "restriction", "restriction_type": "oks"}, "geometry": {"type": "Polygon", "coordinates": [[[37.72884071347084, 55.763735412167435], [37.729223103103244, 55.76373936656917], [37.72921609035798, 55.763954960492164], [37.728833698616754, 55.76395100605862], [37.72884071347084, 55.763735412167435]]]}}, {"type": "Feature", "properties": {"id": 123, "object_type": "restriction", "restriction_type": "oks"}, "geometry": {"type": "Polygon", "coordinates": [[[37.72942481531275, 55.7634179524003], [37.72980720192497, 55.7634219049703], [37.72980019248589, 55.763637498953294], [37.72941780376488, 55.7636335463515], [37.72942481531275, 55.7634179524003]]]}}, {"type": "Feature", "properties": {"id": 124, "object_type": "restriction", "restriction_type": "oks"}, "geometry": {"type": "Polygon", "coordinates": [[[37.7294142979552, 55.76374134332402], [37.72979668773061, 55.76374529594171], [37.729789678148585, 55.76396088991239], [37.72940728626435, 55.76395693726292], [37.7294142979552, 55.76374134332402]]]}}, {"type": "Feature", "properties": {"id": 125, "object_type": "restriction", "restriction_type": "oks"}, "geometry": {"type": "Polygon", "coordinates": [[[37.728827852832154, 55.76413066762836], [37.72921024633075, 55.764134622088406], [37.729203233410686, 55.76435021599637], [37.72882083780321, 55.76434626150452], [37.728827852832154, 55.76413066762836]]]}}, {"type": "Feature", "properties": {"id": 126, "object_type": "restriction", "restriction_type": "oks"}, "geometry": {"type": "Polygon", "coordinates": [[[37.72881733025298, 55.76445405843953], [37.7291997269149, 55.76445801294729], [37.729192713851816, 55.76467360684296], [37.72881031508098, 55.764669652303404], [37.72881733025298, 55.76445405843953]]]}}, {"type": "Feature", "properties": {"id": 127, "object_type": "restriction", "restriction_type": "oks"}, "geometry": {"type": "Polygon", "coordinates": [[[37.72940144311581, 55.76413659887241], [37.72978383675742, 55.76414055154837], [37.72977682700067, 55.764356145504046], [37.729394431250185, 55.76435219279627], [37.72940144311581, 55.76413659887241]]]}}, {"type": "Feature", "properties": {"id": 128, "object_type": "restriction", "restriction_type": "oks"}, "geometry": {"type": "Polygon", "coordinates": [[[37.72939092528162, 55.76445998975514], [37.72977332208655, 55.7644639424788], [37.72976631218684, 55.76467953642217], [37.72938391327299, 55.7646755836667], [37.72939092528162, 55.76445998975514]]]}}, {"type": "Feature", "properties": {"id": 129, "object_type": "restriction", "restriction_type": "oks"}, "geometry": {"type": "Polygon", "coordinates": [[[37.73026599113818, 55.75911331595936], [37.73064833575543, 55.75911726571351], [37.73064133208701, 55.75933285991869], [37.73025898536155, 55.759328910132766], [37.73026599113818, 55.75911331595936]]]}}, {"type": "Feature", "properties": {"id": 130, "object_type": "restriction", "restriction_type": "oks"}, "geometry": {"type": "Polygon", "coordinates": [[[37.730255482437514, 55.759436707216395], [37.7306378302171, 55.759440657018196], [37.73063082640586, 55.75965625121108], [37.73024847651803, 55.759652301377514], [37.730255482437514, 55.759436707216395]]]}}, {"type": "Feature", "properties": {"id": 131, "object_type": "restriction", "restriction_type": "oks"}, "geometry": {"type": "Polygon", "coordinates": [[[37.73083950809976, 55.75911924014465], [37.73122185285982, 55.759123188115055], [37.731214852353716, 55.75933878236786], [37.73083250548545, 55.7593348343657], [37.73083950809976, 55.75911924014465]]]}}, {"type": "Feature", "properties": {"id": 132, "object_type": "restriction", "restriction_type": "oks"}, "geometry": {"type": "Polygon", "coordinates": [[[37.73082900414259, 55.75944263147315], [37.73121135206498, 55.7594465794912], [37.731204351416125, 55.759662173731705], [37.730822001385484, 55.75965822568192], [37.73082900414259, 55.75944263147315]]]}}, {"type": "Feature", "properties": {"id": 133, "object_type": "restriction", "restriction_type": "oks"}, "geometry": {"type": "Polygon", "coordinates": [[[37.73024263817903, 55.759831963172196], [37.73062498982375, 55.75983591303221], [37.73061798583796, 55.760051507210065], [37.73023563208492, 55.760047557318266], [37.73024263817903, 55.759831963172196]]]}}, {"type": "Feature", "properties": {"id": 134, "object_type": "restriction", "restriction_type": "oks"}, "geometry": {"type": "Polygon", "coordinates": [[[37.73023212900215, 55.76015535438823], [37.730614483809354, 55.760159304295925], [37.73060747968073, 55.760374898461485], [37.73022512276518, 55.76037094852203], [37.73023212900215, 55.76015535438823]]]}}, {"type": "Feature", "properties": {"id": 135, "object_type": "restriction", "restriction_type": "oks"}, "geometry": {"type": "Polygon", "coordinates": [[[37.73081616568183, 55.7598378875163], [37.73119851746937, 55.759841835592546], [37.73119151664604, 55.760057429818026], [37.730809162750184, 55.76005348171003], [37.73081616568183, 55.7598378875163]]]}}, {"type": "Feature", "properties": {"id": 136, "object_type": "restriction", "restriction_type": "oks"}, "geometry": {"type": "Polygon", "coordinates": [[[37.73080566124866, 55.76016127880381], [37.73118801619868, 55.76016522692769], [37.731181015232586, 55.760380821140885], [37.730798658174216, 55.76037687298526], [37.73080566124866, 55.76016127880381]]]}}, {"type": "Feature", "properties": {"id": 137, "object_type": "restriction", "restriction_type": "oks"}, "geometry": {"type": "Polygon", "coordinates": [[[37.7302192841616, 55.76055061029392], [37.73060164283414, 55.76055456025985], [37.73059463853094, 55.76077015441039], [37.730212277750006, 55.76076620441269], [37.7302192841616, 55.76055061029392]]]}}, {"type": "Feature", "properties": {"id": 138, "object_type": "restriction", "restriction_type": "oks"}, "geometry": {"type": "Polygon", "coordinates": [[[37.73020877450849, 55.76087400146899], [37.730591136343634, 55.76087795148257], [37.7305841318976, 55.761093545620795], [37.730201767954014, 55.76108959557545], [37.73020877450849, 55.76087400146899]]]}}, {"type": "Feature", "properties": {"id": 139, "object_type": "restriction", "restriction_type": "oks"}, "geometry": {"type": "Polygon", "coordinates": [[[37.73079282220611, 55.760556534796855], [37.73117518102147, 55.760560482978946], [37.731168179880875, 55.76077607717711], [37.730785818957116, 55.76077212896327], [37.73079282220611, 55.760556534796855]]]}}, {"type": "Feature", "properties": {"id": 140, "object_type": "restriction", "restriction_type": "oks"}, "geometry": {"type": "Polygon", "coordinates": [[[37.73078231729692, 55.7608799260434], [37.73116467927489, 55.76088387427311], [37.73115767799153, 55.76109946845899], [37.73077531390511, 55.761095520197514], [37.73078231729692, 55.7608799260434]]]}}, {"type": "Feature", "properties": {"id": 141, "object_type": "restriction", "restriction_type": "oks"}, "geometry": {"type": "Polygon", "coordinates": [[[37.73019592908585, 55.7612692573246], [37.730578294786504, 55.7612732073964], [37.73057129016589, 55.761488801519626], [37.73018892235674, 55.761484851416036], [37.73019592908585, 55.7612692573246]]]}}, {"type": "Feature", "properties": {"id": 142, "object_type": "restriction", "restriction_type": "oks"}, "geometry": {"type": "Polygon", "coordinates": [[[37.73018541895647, 55.76159264845867], [37.73056778781987, 55.76159659857814], [37.73056078305642, 55.76181219268906], [37.73017841208447, 55.76180824253781], [37.73018541895647, 55.76159264845867]]]}}, {"type": "Feature", "properties": {"id": 143, "object_type": "restriction", "restriction_type": "oks"}, "geometry": {"type": "Polygon", "coordinates": [[[37.73076947767254, 55.76127518198635], [37.731151843516024, 55.76127913027428], [37.731144842058164, 55.76149472444513], [37.73076247410618, 55.76149077612544], [37.73076947767254, 55.76127518198635]]]}}, {"type": "Feature", "properties": {"id": 144, "object_type": "restriction", "restriction_type": "oks"}, "geometry": {"type": "Polygon", "coordinates": [[[37.73075897228729, 55.76159857319191], [37.73114134129354, 55.76160252152747], [37.73113433969289, 55.761818115686026], [37.730751968578105, 55.761814167318704], [37.73075897228729, 55.76159857319191]]]}}, {"type": "Feature", "properties": {"id": 145, "object_type": "restriction", "restriction_type": "oks"}, "geometry": {"type": "Polygon", "coordinates": [[[37.7301725729517, 55.76198790426417], [37.730554945680794, 55.76199185444188], [37.730547940742746, 55.76220744853778], [37.73016556590506, 55.76220349832829], [37.7301725729517, 55.76198790426417]]]}}, {"type": "Feature", "properties": {"id": 146, "object_type": "restriction", "restriction_type": "oks"}, "geometry": {"type": "Polygon", "coordinates": [[[37.73016206234602, 55.76231129535727], [37.730544438238006, 55.76231524558265], [37.73053743315711, 55.76253083966624], [37.73015505515648, 55.76252688940909], [37.73016206234602, 55.76231129535727]]]}}, {"type": "Feature", "properties": {"id": 147, "object_type": "restriction", "restriction_type": "oks"}, "geometry": {"type": "Polygon", "coordinates": [[[37.73074613208105, 55.761993829084766], [37.73112850495298, 55.761997777478555], [37.731121503177825, 55.76221337162208], [37.73073912819731, 55.76220942319654], [37.73074613208105, 55.761993829084766]]]}}, {"type": "Feature", "properties": {"id": 148, "object_type": "restriction", "restriction_type": "oks"}, "geometry": {"type": "Polygon", "coordinates": [[[37.73073562621972, 55.76231722024935], [37.73111800225455, 55.762321168690775], [37.73111100033661, 55.762536762822], [37.73072862219314, 55.762532814348816], [37.73073562621972, 55.76231722024935]]]}}, {"type": "Feature", "properties": {"id": 149, "object_type": "restriction", "restriction_type": "oks"}, "geometry": {"type": "Polygon", "coordinates": [[[37.7301492157591, 55.76270655111267], [37.730531595516936, 55.7627105013963], [37.73052459026144, 55.76292609546487], [37.7301422083949, 55.76292214514948], [37.7301492157591, 55.76270655111267]]]}}, {"type": "Feature", "properties": {"id": 150, "object_type": "restriction", "restriction_type": "oks"}, "geometry": {"type": "Polygon", "coordinates": [[[37.73013870467708, 55.76302994216479], [37.73052108759797, 55.76303389249607], [37.7305140821996, 55.763249486552354], [37.73013169716998, 55.763245536189295], [37.73013870467708, 55.76302994216479]]]}}, {"type": "Feature", "properties": {"id": 151, "object_type": "restriction", "restriction_type": "oks"}, "geometry": {"type": "Polygon", "coordinates": [[[37.73072278543158, 55.762712476092126], [37.731105165332266, 55.762716424591765], [37.73109816323981, 55.762932018707964], [37.73071578123042, 55.76292807017657], [37.73072278543158, 55.762712476092126]]]}}, {"type": "Feature", "properties": {"id": 152, "object_type": "restriction", "restriction_type": "oks"}, "geometry": {"type": "Polygon", "coordinates": [[[37.73071227909413, 55.76303586721571], [37.731094662157865, 55.76303981576299], [37.7310876599226, 55.76325540986691], [37.73070527475013, 55.76325146128787], [37.73071227909413, 55.76303586721571]]]}}, {"type": "Feature", "properties": {"id": 153, "object_type": "restriction", "restriction_type": "oks"}, "geometry": {"type": "Polygon", "coordinates": [[[37.73012585750796, 55.7634251978701], [37.73050824429488, 55.76342914825964], [37.7305012387219, 55.76364474230089], [37.7301188498262, 55.76364079187958], [37.73012585750796, 55.7634251978701]]]}}, {"type": "Feature", "properties": {"id": 154, "object_type": "restriction", "restriction_type": "oks"}, "geometry": {"type": "Polygon", "coordinates": [[[37.730115345949585, 55.76374858888124], [37.73049773589969, 55.76375253931843], [37.73049073018384, 55.763968133347376], [37.73010833812491, 55.76396418287842], [37.730115345949585, 55.76374858888124]]]}}, {"type": "Feature", "properties": {"id": 155, "object_type": "restriction", "restriction_type": "oks"}, "geometry": {"type": "Polygon", "coordinates": [[[37.73069943772405, 55.763431123008395], [37.73108182465383, 55.763435071613905], [37.73107482224403, 55.763650665702784], [37.73069243320547, 55.76364671706553], [37.73069943772405, 55.763431123008395]]]}}, {"type": "Feature", "properties": {"id": 156, "object_type": "restriction", "restriction_type": "oks"}, "geometry": {"type": "Polygon", "coordinates": [[[37.73068893091046, 55.76375451409101], [37.73107132100343, 55.76375846274415], [37.73106431845082, 55.763974056820736], [37.73068192624903, 55.763970108135844], [37.73068893091046, 55.76375451409101]]]}}, {"type": "Feature", "properties": {"id": 157, "object_type": "restriction", "restriction_type": "oks"}, "geometry": {"type": "Polygon", "coordinates": [[[37.730102498198235, 55.76414384453646], [37.730484892014545, 55.76414779503191], [37.73047788612406, 55.76436338904582], [37.73009549019888, 55.76435943851862], [37.730102498198235, 55.76414384453646]]]}}, {"type": "Feature", "properties": {"id": 158, "object_type": "restriction", "restriction_type": "oks"}, "geometry": {"type": "Polygon", "coordinates": [[[37.73009198616347, 55.76446723550661], [37.730474383143104, 55.76447118604971], [37.730467377109754, 55.764686780051335], [37.73008497802119, 55.76468282947646], [37.73009198616347, 55.76446723550661]]]}}, {"type": "Feature", "properties": {"id": 159, "object_type": "restriction", "restriction_type": "oks"}, "geometry": {"type": "Polygon", "coordinates": [[[37.73067608895842, 55.7641497698336], [37.73105848291759, 55.76415371854499], [37.73105148019044, 55.76436931260653], [37.73066908412238, 55.76436536386341], [37.73067608895842, 55.7641497698336]]]}}, {"type": "Feature", "properties": {"id": 160, "object_type": "restriction", "restriction_type": "oks"}, "geometry": {"type": "Polygon", "coordinates": [[[37.730665581668646, 55.764473160875234], [37.73104797879115, 55.76447710963425], [37.73104097592119, 55.764692703683515], [37.73065857668976, 55.76468875489275], [37.730665581668646, 55.764473160875234]]]}}, {"type": "Feature", "properties": {"id": 161, "object_type": "restriction", "restriction_type": "oks"}, "geometry": {"type": "Polygon", "coordinates": [[[37.73154047356589, 55.75912647718201], [37.731922818500394, 55.7591304229723], [37.73191582185936, 55.759346017283285], [37.731533474816636, 55.759342071461276], [37.73154047356589, 55.75912647718201]]]}}, {"type": "Feature", "properties": {"id": 162, "object_type": "restriction", "restriction_type": "oks"}, "geometry": {"type": "Polygon", "coordinates": [[[37.73152997540633, 55.75944986859783], [37.73191232350317, 55.75945381443571], [37.731905326719456, 55.759669408734396], [37.731522976514356, 55.75966546286479], [37.73152997540633, 55.75944986859783]]]}}, {"type": "Feature", "properties": {"id": 163, "object_type": "restriction", "restriction_type": "oks"}, "geometry": {"type": "Polygon", "coordinates": [[[37.73211399100332, 55.759132395421496], [37.73249633608048, 55.75913633942803], [37.73248934260177, 55.75935193378661], [37.73210699541639, 55.75934798974835], [37.73211399100332, 55.759132395421496]]]}}, {"type": "Feature", "properties": {"id": 164, "object_type": "restriction", "restriction_type": "oks"}, "geometry": {"type": "Polygon", "coordinates": [[[37.73210349758726, 55.7594557869087], [37.73248584582676, 55.759459730962824], [37.732478852205446, 55.75967532530911], [37.73209650185768, 55.75967138122327], [37.73210349758726, 55.7594557869087]]]}}, {"type": "Feature", "properties": {"id": 165, "object_type": "restriction", "restriction_type": "oks"}, "geometry": {"type": "Polygon", "coordinates": [[[37.7315171440317, 55.75984512474767], [37.7318994959937, 55.75984907064373], [37.73189249903561, 55.7600646649274], [37.73151014496529, 55.760060718999604], [37.7315171440317, 55.75984512474767]]]}}, {"type": "Feature", "properties": {"id": 166, "object_type": "restriction", "restriction_type": "oks"}, "geometry": {"type": "Polygon", "coordinates": [[[37.7315066453964, 55.7601685161225], [37.73188900052089, 55.76017246206616], [37.731882003420104, 55.760388056337554], [37.73149964618727, 55.760384110362146], [37.7315066453964, 55.7601685161225]]]}}, {"type": "Feature", "properties": {"id": 167, "object_type": "restriction", "restriction_type": "oks"}, "geometry": {"type": "Polygon", "coordinates": [[[37.73209067201038, 55.75985104314581], [37.73247302411505, 55.759854987258095], [37.73246603031942, 55.76007058158935], [37.732083676106434, 55.76006663744535], [37.73209067201038, 55.75985104314581]]]}}, {"type": "Feature", "properties": {"id": 168, "object_type": "restriction", "restriction_type": "oks"}, "geometry": {"type": "Polygon", "coordinates": [[[37.73208017811881, 55.760174434592045], [37.73246253338596, 55.760178378751895], [37.73245553944771, 55.76039397307087], [37.7320731820722, 55.7603900288793], [37.73208017811881, 55.760174434592045]]]}}, {"type": "Feature", "properties": {"id": 169, "object_type": "restriction", "restriction_type": "oks"}, "geometry": {"type": "Polygon", "coordinates": [[[37.7314938134403, 55.76056377222225], [37.73187617243013, 55.7605677182241], [37.731869175154955, 55.76078331248046], [37.731486814056716, 55.760779366446876], [37.7314938134403, 55.76056377222225]]]}}, {"type": "Feature", "properties": {"id": 170, "object_type": "restriction", "restriction_type": "oks"}, "geometry": {"type": "Polygon", "coordinates": [[[37.731483314329246, 55.760887163556106], [37.731865676481696, 55.760891109605566], [37.731858679063826, 55.76110670384962], [37.731476314802926, 55.76110275776843], [37.731483314329246, 55.760887163556106]]]}}, {"type": "Feature", "properties": {"id": 171, "object_type": "restriction", "restriction_type": "oks"}, "geometry": {"type": "Polygon", "coordinates": [[[37.732067351960715, 55.76056969077907], [37.73244971109322, 55.76057363499707], [37.73244271698066, 55.76078922930102], [37.73206035573975, 55.760785285051284], [37.732067351960715, 55.76056969077907]]]}}, {"type": "Feature", "properties": {"id": 172, "object_type": "restriction", "restriction_type": "oks"}, "geometry": {"type": "Polygon", "coordinates": [[[37.73205685759359, 55.760893082184324], [37.73243921988872, 55.76089702644991], [37.73243222563354, 55.76111262074156], [37.73204986122995, 55.761108676444245], [37.73205685759359, 55.760893082184324]]]}}, {"type": "Feature", "properties": {"id": 173, "object_type": "restriction", "restriction_type": "oks"}, "geometry": {"type": "Polygon", "coordinates": [[[37.73147048179164, 55.76128241960578], [37.7318528478096, 55.761286365713424], [37.731845850217326, 55.76150195994246], [37.73146348209086, 55.76149801380307], [37.73147048179164, 55.76128241960578]]]}}, {"type": "Feature", "properties": {"id": 174, "object_type": "restriction", "restriction_type": "oks"}, "geometry": {"type": "Polygon", "coordinates": [[[37.73145998220478, 55.76160581089865], [37.73184235138551, 55.76160975705389], [37.731835353650546, 55.76182535127064], [37.73145298236126, 55.76182140508366], [37.73145998220478, 55.76160581089865]]]}}, {"type": "Feature", "properties": {"id": 175, "object_type": "restriction", "restriction_type": "oks"}, "geometry": {"type": "Polygon", "coordinates": [[[37.73204403085426, 55.761288338321265], [37.732426397014905, 55.761292282645016], [37.73241940258539, 55.761507876921634], [37.732037034316235, 55.761503932566164], [37.73204403085426, 55.761288338321265]]]}}, {"type": "Feature", "properties": {"id": 176, "object_type": "restriction", "restriction_type": "oks"}, "geometry": {"type": "Polygon", "coordinates": [[[37.732033536011556, 55.761611729685534], [37.732415905334975, 55.76161567405687], [37.73240891076282, 55.76183126832121], [37.73202653933086, 55.76182732391814], [37.732033536011556, 55.761611729685534]]]}}, {"type": "Feature", "properties": {"id": 177, "object_type": "restriction", "restriction_type": "oks"}, "geometry": {"type": "Polygon", "coordinates": [[[37.73144714908563, 55.76200106689823], [37.73182952213206, 55.76200501311166], [37.731822524222665, 55.76222060731338], [37.731440149067645, 55.76221666106821], [37.73144714908563, 55.76200106689823]]]}}, {"type": "Feature", "properties": {"id": 178, "object_type": "restriction", "restriction_type": "oks"}, "geometry": {"type": "Polygon", "coordinates": [[[37.73143664902296, 55.76232445815013], [37.73181902523229, 55.76232840441117], [37.73181202718019, 55.76254399860059], [37.73142964886222, 55.762540052307806], [37.73143664902296, 55.76232445815013]]]}}, {"type": "Feature", "properties": {"id": 179, "object_type": "restriction", "restriction_type": "oks"}, "geometry": {"type": "Polygon", "coordinates": [[[37.732020708690946, 55.76200698577238], [37.73240308188006, 55.76201093020188], [37.732396087133566, 55.7622265244512], [37.73201371183585, 55.76222257998998], [37.732020708690946, 55.76200698577238]]]}}, {"type": "Feature", "properties": {"id": 180, "object_type": "restriction", "restriction_type": "oks"}, "geometry": {"type": "Polygon", "coordinates": [[[37.73201021337263, 55.7623303770957], [37.73239258972466, 55.76233432157278], [37.73238559483553, 55.762549915809785], [37.732003216374856, 55.76254597130099], [37.73201021337263, 55.7623303770957]]]}}, {"type": "Feature", "properties": {"id": 181, "object_type": "restriction", "restriction_type": "oks"}, "geometry": {"type": "Polygon", "coordinates": [[[37.73142381532223, 55.76271971409963], [37.731806195397425, 55.76272366041886], [37.7317991971709, 55.762939254593256], [37.73141681498701, 55.762935308242284], [37.73142381532223, 55.76271971409963]]]}}, {"type": "Feature", "properties": {"id": 182, "object_type": "restriction", "restriction_type": "oks"}, "geometry": {"type": "Polygon", "coordinates": [[[37.7314133147837, 55.76304310531054], [37.731795698021955, 55.763047051677376], [37.73178869965271, 55.76326264583948], [37.73140631430572, 55.76325869944092], [37.7314133147837, 55.76304310531054]]]}}, {"type": "Feature", "properties": {"id": 183, "object_type": "restriction", "restriction_type": "oks"}, "geometry": {"type": "Polygon", "coordinates": [[[37.731997385470706, 55.76272563313247], [37.732379765688606, 55.76272957766771], [37.73237277062512, 55.762945171889704], [37.73199038829853, 55.762941227322735], [37.731997385470706, 55.76272563313247]]]}}, {"type": "Feature", "properties": {"id": 184, "object_type": "restriction", "restriction_type": "oks"}, "geometry": {"type": "Polygon", "coordinates": [[[37.73198688967676, 55.76304902441479], [37.732369273057714, 55.763052968997634], [37.73236227785158, 55.76326856320733], [37.73197989236188, 55.76326461859277], [37.73198688967676, 55.76304902441479]]]}}, {"type": "Feature", "properties": {"id": 185, "object_type": "restriction", "restriction_type": "oks"}, "geometry": {"type": "Polygon", "coordinates": [[[37.731400480501364, 55.76343836120995], [37.73178286760565, 55.763442307634975], [37.73177586906196, 55.76365790178206], [37.73139347984888, 55.763653955325296], [37.731400480501364, 55.76343836120995]]]}}, {"type": "Feature", "properties": {"id": 186, "object_type": "restriction", "restriction_type": "oks"}, "geometry": {"type": "Polygon", "coordinates": [[[37.731389979486956, 55.76376175237989], [37.73177236975444, 55.76376569885253], [37.73176537106803, 55.763981292987324], [37.73138297869171, 55.76397734648294], [37.731389979486956, 55.76376175237989]]]}}, {"type": "Feature", "properties": {"id": 187, "object_type": "restriction", "restriction_type": "oks"}, "geometry": {"type": "Polygon", "coordinates": [[[37.731974061193476, 55.76344428040148], [37.73235644844048, 55.76344822504247], [37.73234945305998, 55.76366381923716], [37.73196706370419, 55.763659874564446], [37.731974061193476, 55.76344428040148]]]}}, {"type": "Feature", "properties": {"id": 188, "object_type": "restriction", "restriction_type": "oks"}, "geometry": {"type": "Polygon", "coordinates": [[[37.731963564923866, 55.76376767164284], [37.73234595533407, 55.763771616331425], [37.7323389598109, 55.7639872105138], [37.73195656729187, 55.763983265793485], [37.731963564923866, 55.76376767164284]]]}}, {"type": "Feature", "properties": {"id": 189, "object_type": "restriction", "restriction_type": "oks"}, "geometry": {"type": "Polygon", "coordinates": [[[37.73137714462296, 55.764157008229226], [37.73175953875666, 55.76416095476005], [37.7317525398958, 55.76437654887982], [37.731370143653216, 55.76437260231724], [37.73137714462296, 55.764157008229226]]]}}, {"type": "Feature", "properties": {"id": 190, "object_type": "restriction", "restriction_type": "oks"}, "geometry": {"type": "Polygon", "coordinates": [[[37.731366643132645, 55.764480399358185], [37.73174904042968, 55.76448434593662], [37.73174204142609, 55.764699940044096], [37.73135964202012, 55.76469599343392], [37.731366643132645, 55.764480399358185]]]}}, {"type": "Feature", "properties": {"id": 191, "object_type": "restriction", "restriction_type": "oks"}, "geometry": {"type": "Polygon", "coordinates": [[[37.73195073585919, 55.76416292757945], [37.73233313013562, 55.7641668723262], [37.73232613443809, 55.76438246649356], [37.73194373805278, 55.76437852171508], [37.73195073585919, 55.76416292757945]]]}}, {"type": "Feature", "properties": {"id": 192, "object_type": "restriction", "restriction_type": "oks"}, "geometry": {"type": "Polygon", "coordinates": [[[37.73194023911389, 55.764486318779824], [37.732322636553654, 55.76449026357415], [37.73231564071345, 55.76470585772923], [37.731933241164754, 55.76470191290316], [37.73194023911389, 55.764486318779824]]]}}, {"type": "Feature", "properties": {"id": 193, "object_type": "restriction", "restriction_type": "oks"}, "geometry": {"type": "Polygon", "coordinates": [[[37.73281495705074, 55.759139625191764], [37.73319730230217, 55.75914356701817], [37.73319031268854, 55.75935916143487], [37.73280796532889, 55.75935521957676], [37.73281495705074, 55.759139625191764]]]}}, {"type": "Feature", "properties": {"id": 194, "object_type": "restriction", "restriction_type": "oks"}, "geometry": {"type": "Polygon", "coordinates": [[[37.73280446943231, 55.7594630167662], [37.73318681784609, 55.75946695864016], [37.73317982808993, 55.75968255304456], [37.73279747756788, 55.759678611138895], [37.73280446943231, 55.7594630167662]]]}}, {"type": "Feature", "properties": {"id": 195, "object_type": "restriction", "restriction_type": "oks"}, "geometry": {"type": "Polygon", "coordinates": [[[37.73338847496353, 55.759145537485445], [37.73377082035749, 55.7591494775281], [37.73376383390619, 55.759365071992335], [37.73338148640401, 55.759361131917984], [37.73338847496353, 55.759145537485445]]]}}, {"type": "Feature", "properties": {"id": 196, "object_type": "restriction", "restriction_type": "oks"}, "geometry": {"type": "Polygon", "coordinates": [[[37.73337799208862, 55.759468929131195], [37.73376034064493, 55.75947286922139], [37.73375335405116, 55.759688463673335], [37.73337100338659, 55.75968452355144], [37.73337799208862, 55.759468929131195]]]}}, {"type": "Feature", "properties": {"id": 197, "object_type": "restriction", "restriction_type": "oks"}, "geometry": {"type": "Polygon", "coordinates": [[[37.73279165094158, 55.7598582731099], [37.73317400322053, 55.759862215041984], [37.73316701329016, 55.760077809431365], [37.73278465890289, 55.76007386746758], [37.73279165094158, 55.7598582731099]]]}}, {"type": "Feature", "properties": {"id": 198, "object_type": "restriction", "restriction_type": "oks"}, "geometry": {"type": "Polygon", "coordinates": [[[37.73278116284789, 55.760181664643355], [37.73316351828934, 55.76018560662298], [37.733156528216426, 55.760401201000086], [37.732774170666616, 55.760397258988746], [37.73278116284789, 55.760181664643355]]]}}, {"type": "Feature", "properties": {"id": 199, "object_type": "restriction", "restriction_type": "oks"}, "geometry": {"type": "Polygon", "coordinates": [[[37.733365179395655, 55.75986418556208], [37.73374753181714, 55.75986812571037], [37.733740545049244, 55.760083720147286], [37.73335819051944, 55.760079779967306], [37.733365179395655, 55.75986418556208]]]}}, {"type": "Feature", "properties": {"id": 200, "object_type": "restriction", "restriction_type": "oks"}, "geometry": {"type": "Polygon", "coordinates": [[[37.7333546960457, 55.760187577166846], [37.733737051629674, 55.76019151736267], [37.7337300647193, 55.76040711178731], [37.733347707026965, 55.76040317155981], [37.7333546960457, 55.760187577166846]]]}}, {"type": "Feature", "properties": {"id": 201, "object_type": "restriction", "restriction_type": "oks"}, "geometry": {"type": "Polygon", "coordinates": [[[37.732768343776264, 55.76057692093697], [37.73315070308307, 55.760580862974734], [37.73314371283593, 55.760796457336816], [37.73276135142072, 55.760792515267354], [37.732768343776264, 55.76057692093697]]]}}, {"type": "Feature", "properties": {"id": 202, "object_type": "restriction", "restriction_type": "oks"}, "geometry": {"type": "Polygon", "coordinates": [[[37.732757855207296, 55.760900312429456], [37.73314021767673, 55.76090425451476], [37.73313322728705, 55.76111984886455], [37.73275086270915, 55.76111590674753], [37.732757855207296, 55.760900312429456]]]}}, {"type": "Feature", "properties": {"id": 203, "object_type": "restriction", "restriction_type": "oks"}, "geometry": {"type": "Polygon", "coordinates": [[[37.7333418827721, 55.76058283354766], [37.73372424222144, 55.76058677380158], [37.73371725513693, 55.76080236821119], [37.73333489357918, 55.76079842792558], [37.7333418827721, 55.76058283354766]]]}}, {"type": "Feature", "properties": {"id": 204, "object_type": "restriction", "restriction_type": "oks"}, "geometry": {"type": "Polygon", "coordinates": [[[37.73333139894709, 55.76090622511146], [37.73371376155905, 55.76091016541292], [37.733706774332056, 55.76112575981024], [37.733324409611626, 55.76112181947709], [37.73333139894709, 55.76090622511146]]]}}, {"type": "Feature", "properties": {"id": 205, "object_type": "restriction", "restriction_type": "oks"}, "geometry": {"type": "Polygon", "coordinates": [[[37.73274503555476, 55.76129556867301], [37.73312740188971, 55.76129951081645], [37.7331204113258, 55.761515105151204], [37.73273804288233, 55.76151116297606], [37.73274503555476, 55.76129556867301]]]}}, {"type": "Feature", "properties": {"id": 206, "object_type": "restriction", "restriction_type": "oks"}, "geometry": {"type": "Polygon", "coordinates": [[[37.732734546510464, 55.76161896012451], [37.7331169160082, 55.761622902315516], [37.733109925301726, 55.761838496637985], [37.73272755369544, 55.76183455441527], [37.732734546510464, 55.76161896012451]]]}}, {"type": "Feature", "properties": {"id": 207, "object_type": "restriction", "restriction_type": "oks"}, "geometry": {"type": "Polygon", "coordinates": [[[37.73331858509283, 55.761301481442196], [37.733700951570334, 55.76130542180176], [37.733693964169184, 55.76152101618404], [37.73331159558317, 55.76151707579282], [37.73331858509283, 55.761301481442196]]]}}, {"type": "Feature", "properties": {"id": 208, "object_type": "restriction", "restriction_type": "oks"}, "geometry": {"type": "Polygon", "coordinates": [[[37.733308100792705, 55.76162487296503], [37.73369047043298, 55.76162881337211], [37.73368348288935, 55.76184440774214], [37.733301111140506, 55.76184046730336], [37.733308100792705, 55.76162487296503]]]}}, {"type": "Feature", "properties": {"id": 209, "object_type": "restriction", "restriction_type": "oks"}, "geometry": {"type": "Polygon", "coordinates": [[[37.732721726276964, 55.76201421631797], [37.7331040996404, 55.76201815856711], [37.73309710875969, 55.76223375287455], [37.732714733287644, 55.762229810593716], [37.732721726276964, 55.76201421631797]]]}}, {"type": "Feature", "properties": {"id": 210, "object_type": "restriction", "restriction_type": "oks"}, "geometry": {"type": "Polygon", "coordinates": [[[37.73271123675733, 55.76233760772852], [37.733093613283685, 55.762341550025205], [37.7330866222604, 55.762557144320354], [37.732704243625406, 55.762553201991956], [37.73271123675733, 55.76233760772852]]]}}, {"type": "Feature", "properties": {"id": 211, "object_type": "restriction", "restriction_type": "oks"}, "geometry": {"type": "Polygon", "coordinates": [[[37.73329528635776, 55.76202012924569], [37.733677659863744, 55.762024069710876], [37.733670672145934, 55.762239664065866], [37.73328829653134, 55.762235723568985], [37.73329528635776, 55.76202012924569]]]}}, {"type": "Feature", "properties": {"id": 212, "object_type": "restriction", "restriction_type": "oks"}, "geometry": {"type": "Polygon", "coordinates": [[[37.7332848015825, 55.76234352072756], [37.73366717825141, 55.76234746124029], [37.7336601903911, 55.76256305558299], [37.73327781161355, 55.762559115038556], [37.7332848015825, 55.76234352072756]]]}}, {"type": "Feature", "properties": {"id": 213, "object_type": "restriction", "restriction_type": "oks"}, "geometry": {"type": "Polygon", "coordinates": [[[37.732698415942835, 55.7627328638719], [37.73308079633507, 55.76273680622673], [37.73307380513753, 55.76295240050686], [37.7326914226366, 55.76294845812032], [37.732698415942835, 55.7627328638719]]]}}, {"type": "Feature", "properties": {"id": 214, "object_type": "restriction", "restriction_type": "oks"}, "geometry": {"type": "Polygon", "coordinates": [[[37.73268792594782, 55.76305625524146], [37.73307030950312, 55.76306019764384], [37.73306331816301, 55.76327579191168], [37.73268093249898, 55.76327184947759], [37.73268792594782, 55.76305625524146]]]}}, {"type": "Feature", "properties": {"id": 215, "object_type": "restriction", "restriction_type": "oks"}, "geometry": {"type": "Polygon", "coordinates": [[[37.73327198656682, 55.76273877695814], [37.73365436710161, 55.76274271752897], [37.73364737906713, 55.76295831185664], [37.733264996423635, 55.76295437125412], [37.73327198656682, 55.76273877695814]]]}}, {"type": "Feature", "properties": {"id": 216, "object_type": "restriction", "restriction_type": "oks"}, "geometry": {"type": "Polygon", "coordinates": [[[37.733261501316406, 55.76306216839903], [37.73364388501426, 55.7630661090174], [37.73363689683727, 55.763281703332794], [37.73325451103067, 55.76327776268273], [37.733261501316406, 55.76306216839903]]]}}, {"type": "Feature", "properties": {"id": 217, "object_type": "restriction", "restriction_type": "oks"}, "geometry": {"type": "Polygon", "coordinates": [[[37.7326751045523, 55.76345151133478], [37.73305749197364, 55.76345545379529], [37.733050500459264, 55.7636710480481], [37.73266811092913, 55.76366710555589], [37.7326751045523, 55.76345151133478]]]}}, {"type": "Feature", "properties": {"id": 218, "object_type": "restriction", "restriction_type": "oks"}, "geometry": {"type": "Polygon", "coordinates": [[[37.732664614081884, 55.76377490266337], [37.73304700466643, 55.76377884517145], [37.73304001300948, 55.76399443941197], [37.7326576203161, 55.76399049687218], [37.732664614081884, 55.76377490266337]]]}}, {"type": "Feature", "properties": {"id": 219, "object_type": "restriction", "restriction_type": "oks"}, "geometry": {"type": "Polygon", "coordinates": [[[37.73324868571996, 55.76345742457953], [37.73363107328387, 55.763461365256006], [37.73362408493269, 55.76367695955638], [37.733241695259984, 55.763673018848216], [37.73324868571996, 55.76345742457953]]]}}, {"type": "Feature", "properties": {"id": 220, "object_type": "restriction", "restriction_type": "oks"}, "geometry": {"type": "Polygon", "coordinates": [[[37.73323819999436, 55.763780815979466], [37.73362059072148, 55.763784756703494], [37.73361360222778, 55.76400035099156], [37.73323120939182, 55.76399641023584], [37.73323819999436, 55.763780815979466]]]}}, {"type": "Feature", "properties": {"id": 221, "object_type": "restriction", "restriction_type": "oks"}, "geometry": {"type": "Polygon", "coordinates": [[[37.732651792105294, 55.764170158706605], [37.73303418655606, 55.764174101272815], [37.73302719472483, 55.7643896954983], [37.73264479816517, 55.76438575290039], [37.732651792105294, 55.764170158706605]]]}}, {"type": "Feature", "properties": {"id": 222, "object_type": "restriction", "restriction_type": "oks"}, "geometry": {"type": "Polygon", "coordinates": [[[37.73264130115945, 55.764493549994214], [37.73302369877357, 55.764497492607994], [37.733016706799745, 55.7647130868212], [37.732634307076694, 55.76470914417571], [37.73264130115945, 55.764493549994214]]]}}, {"type": "Feature", "properties": {"id": 223, "object_type": "restriction", "restriction_type": "oks"}, "geometry": {"type": "Polygon", "coordinates": [[[37.7332253838171, 55.764176072109905], [37.73360777841045, 55.76418001289203], [37.73360078974256, 55.76439560716508], [37.73321839304032, 55.76439166635126], [37.7332253838171, 55.764176072109905]]]}}, {"type": "Feature", "properties": {"id": 224, "object_type": "restriction", "restriction_type": "oks"}, "geometry": {"type": "Polygon", "coordinates": [[[37.73321489761628, 55.76449946346886], [37.73359729537298, 55.76450340429853], [37.73359030656256, 55.76471899855929], [37.73320790669692, 55.76471505769791], [37.73321489761628, 55.76449946346886]]]}}, {"type": "Feature", "properties": {"id": 225, "object_type": "restriction", "restriction_type": "oks"}, "geometry": {"type": "Polygon", "coordinates": [[[37.734089441591664, 55.75915275998859], [37.73447178715972, 55.759156697851125], [37.73446480457351, 55.75937229237343], [37.73408245689722, 55.759368354479236], [37.734089441591664, 55.75915275998859]]]}}, {"type": "Feature", "properties": {"id": 226, "object_type": "restriction", "restriction_type": "oks"}, "geometry": {"type": "Polygon", "coordinates": [[[37.734078964514396, 55.75947615172147], [37.7344613132448, 55.75948008963151], [37.73445433051621, 55.75969568414153], [37.73407197967753, 55.75969174619982], [37.734078964514396, 55.75947615172147]]]}}, {"type": "Feature", "properties": {"id": 227, "object_type": "restriction", "restriction_type": "oks"}, "geometry": {"type": "Polygon", "coordinates": [[[37.734662959979346, 55.75915866633645], [37.73504530568977, 55.75916260241523], [37.73503832626591, 55.75937819698502], [37.73465597844724, 55.75937426087458], [37.734662959979346, 55.75915866633645]]]}}, {"type": "Feature", "properties": {"id": 228, "object_type": "restriction", "restriction_type": "oks"}, "geometry": {"type": "Polygon", "coordinates": [[[37.73465248764561, 55.75948205814059], [37.735034836518395, 55.75948599426684], [37.73502785695221, 55.75970158882435], [37.734645505971145, 55.759697652666425], [37.73465248764561, 55.75948205814059]]]}}, {"type": "Feature", "properties": {"id": 229, "object_type": "restriction", "restriction_type": "oks"}, "geometry": {"type": "Polygon", "coordinates": [[[37.734066158907595, 55.75987140825885], [37.73444851150319, 55.75987534622695], [37.734441528600556, 55.760090940721945], [37.73405917389664, 55.76008700272219], [37.734066158907595, 55.75987140825885]]]}}, {"type": "Feature", "properties": {"id": 230, "object_type": "restriction", "restriction_type": "oks"}, "geometry": {"type": "Polygon", "coordinates": [[[37.73405568135555, 55.76019479995077], [37.73443803711364, 55.76019873796637], [37.73443105406861, 55.76041433244908], [37.73404869620215, 55.7604103944018], [37.73405568135555, 55.76019479995077]]]}}, {"type": "Feature", "properties": {"id": 231, "object_type": "restriction", "restriction_type": "oks"}, "geometry": {"type": "Polygon", "coordinates": [[[37.73463968783659, 55.759877314765056], [37.73502204057457, 55.75988125094934], [37.73501506083443, 55.76009684549183], [37.73463270598812, 55.760092909275876], [37.73463968783659, 55.759877314765056]]]}}, {"type": "Feature", "properties": {"id": 232, "object_type": "restriction", "restriction_type": "oks"}, "geometry": {"type": "Polygon", "coordinates": [[[37.73462921502829, 55.76020070652822], [37.73501157092877, 55.760204642759994], [37.73500459104629, 55.7604202372902], [37.73462223303744, 55.76041630102676], [37.73462921502829, 55.76020070652822]]]}}, {"type": "Feature", "properties": {"id": 233, "object_type": "restriction", "restriction_type": "oks"}, "geometry": {"type": "Polygon", "coordinates": [[[37.73404287516845, 55.760590056438076], [37.7344252347919, 55.76059399451173], [37.734418251572826, 55.76080958897943], [37.73403588984095, 55.76080565087408], [37.73404287516845, 55.760590056438076]]]}}, {"type": "Feature", "properties": {"id": 234, "object_type": "restriction", "restriction_type": "oks"}, "geometry": {"type": "Polygon", "coordinates": [[[37.73403239714159, 55.76091344808902], [37.73441475992768, 55.76091738621019], [37.73440777656621, 55.761132980665586], [37.734025411671645, 55.76112904251274], [37.73403239714159, 55.76091344808902]]]}}, {"type": "Feature", "properties": {"id": 235, "object_type": "restriction", "restriction_type": "oks"}, "geometry": {"type": "Polygon", "coordinates": [[[37.734616414639234, 55.76059596310261], [37.73499877440508, 55.76059989939243], [37.73499179434864, 55.760815493907614], [37.734609432474365, 55.76081155758613], [37.734616414639234, 55.76059596310261]]]}}, {"type": "Feature", "properties": {"id": 236, "object_type": "restriction", "restriction_type": "oks"}, "geometry": {"type": "Polygon", "coordinates": [[[37.734605941356335, 55.760919354824814], [37.734988304284826, 55.76092329116212], [37.73498132408604, 55.761138885665], [37.73459895904909, 55.761134949296036], [37.734605941356335, 55.760919354824814]]]}}, {"type": "Feature", "properties": {"id": 237, "object_type": "restriction", "restriction_type": "oks"}, "geometry": {"type": "Polygon", "coordinates": [[[37.734019590374146, 55.76130870452626], [37.73440195702578, 55.7613126427055], [37.73439497349024, 55.761528237145875], [37.7340126047301, 55.761524298934944], [37.734019590374146, 55.76130870452626]]]}}, {"type": "Feature", "properties": {"id": 238, "object_type": "restriction", "restriction_type": "oks"}, "geometry": {"type": "Polygon", "coordinates": [[[37.73400911187245, 55.76163209613622], [37.73439148168687, 55.761636034362986], [37.73438449800892, 55.76185162879107], [37.73400212608595, 55.76184769053264], [37.73400911187245, 55.76163209613622]]]}}, {"type": "Feature", "properties": {"id": 239, "object_type": "restriction", "restriction_type": "oks"}, "geometry": {"type": "Polygon", "coordinates": [[[37.734593140387204, 55.761314611349135], [37.73497550718123, 55.761318547744494], [37.73496852680847, 55.76153414223236], [37.734586157905916, 55.76153020580534], [37.734593140387204, 55.761314611349135]]]}}, {"type": "Feature", "properties": {"id": 240, "object_type": "restriction", "restriction_type": "oks"}, "geometry": {"type": "Polygon", "coordinates": [[[37.734582666629684, 55.76163800303037], [37.7349650365865, 55.76164193947321], [37.73495805607139, 55.761857533948806], [37.73457568400601, 55.7618535974743], [37.734582666629684, 55.76163800303037]]]}}, {"type": "Feature", "properties": {"id": 241, "object_type": "restriction", "restriction_type": "oks"}, "geometry": {"type": "Polygon", "coordinates": [[[37.73399630452463, 55.762027352523376], [37.73437867820476, 55.7620312908082], [37.734371694352745, 55.762246885221266], [37.73398931856401, 55.76224294690478], [37.73399630452463, 55.762027352523376]]]}}, {"type": "Feature", "properties": {"id": 242, "object_type": "restriction", "restriction_type": "oks"}, "geometry": {"type": "Polygon", "coordinates": [[[37.733985825548075, 55.76235074409241], [37.734368202391124, 55.762354682424736], [37.734361218396685, 55.7625702768255], [37.73397883944498, 55.76256633846149], [37.733985825548075, 55.76235074409241]]]}}, {"type": "Feature", "properties": {"id": 243, "object_type": "restriction", "restriction_type": "oks"}, "geometry": {"type": "Polygon", "coordinates": [[[37.73456986508044, 55.76203325950463], [37.73495223890297, 55.76203719600551], [37.73494525821387, 55.76225279046607], [37.73456288228272, 55.762248853933535], [37.73456986508044, 55.76203325950463]]]}}, {"type": "Feature", "properties": {"id": 244, "object_type": "restriction", "restriction_type": "oks"}, "geometry": {"type": "Polygon", "coordinates": [[[37.73455939084826, 55.76235665114491], [37.73494176783373, 55.76236058769328], [37.734934787002274, 55.76257618214155], [37.734552407908154, 55.762572245561515], [37.73455939084826, 55.76235665114491]]]}}, {"type": "Feature", "properties": {"id": 245, "object_type": "restriction", "restriction_type": "oks"}, "geometry": {"type": "Polygon", "coordinates": [[[37.733973017619846, 55.76274600042949], [37.73435539832878, 55.762749938819894], [37.734348414160266, 55.76296553320564], [37.73396603134261, 55.76296159478357], [37.733973017619846, 55.76274600042949]]]}}, {"type": "Feature", "properties": {"id": 246, "object_type": "restriction", "restriction_type": "oks"}, "geometry": {"type": "Polygon", "coordinates": [[[37.73396253816838, 55.76306939195753], [37.7343449220404, 55.76307333039545], [37.73433793772944, 55.76328892476892], [37.73395555174868, 55.76328498629932], [37.73396253816838, 55.76306939195753]]]}}, {"type": "Feature", "properties": {"id": 247, "object_type": "restriction", "restriction_type": "oks"}, "geometry": {"type": "Polygon", "coordinates": [[[37.734546588718864, 55.762751907569104], [37.73492896957023, 55.76275584417552], [37.73492198856477, 55.76297143860877], [37.7345396056047, 55.762967501970685], [37.734546588718864, 55.762751907569104]]]}}, {"type": "Feature", "properties": {"id": 248, "object_type": "restriction", "restriction_type": "oks"}, "geometry": {"type": "Polygon", "coordinates": [[[37.73453611401201, 55.7630752991684], [37.73491849802645, 55.763079235822325], [37.734911516878626, 55.763294830243275], [37.73452913075543, 55.763290893557716], [37.73453611401201, 55.7630752991684]]]}}, {"type": "Feature", "properties": {"id": 249, "object_type": "restriction", "restriction_type": "oks"}, "geometry": {"type": "Polygon", "coordinates": [[[37.733949729659706, 55.763464648244536], [37.734332117397784, 55.76346858674053], [37.734325132912744, 55.763684181098995], [37.73394274306586, 55.76368024257132], [37.733949729659706, 55.763464648244536]]]}}, {"type": "Feature", "properties": {"id": 250, "object_type": "restriction", "restriction_type": "oks"}, "geometry": {"type": "Polygon", "coordinates": [[[37.73393924973332, 55.76378803973163], [37.734321640634604, 55.76379197827514], [37.73431465600713, 55.76400757262129], [37.733932262996994, 55.76400363404609], [37.73393924973332, 55.76378803973163]]]}}, {"type": "Feature", "properties": {"id": 251, "object_type": "restriction", "restriction_type": "oks"}, "geometry": {"type": "Polygon", "coordinates": [[[37.73452331130243, 55.763470555542526], [37.73490569918293, 55.76347449225449], [37.7348987178611, 55.76369008666043], [37.734516327871795, 55.763686149916815], [37.73452331130243, 55.763470555542526]]]}}, {"type": "Feature", "properties": {"id": 252, "object_type": "restriction", "restriction_type": "oks"}, "geometry": {"type": "Polygon", "coordinates": [[[37.734512836120864, 55.76379394710088], [37.734895227164586, 55.76379788386033], [37.734888245700375, 55.76401347825397], [37.734505852547805, 55.764009541462855], [37.734512836120864, 55.76379394710088]]]}}, {"type": "Feature", "properties": {"id": 253, "object_type": "restriction", "restriction_type": "oks"}, "geometry": {"type": "Polygon", "coordinates": [[[37.73392644064416, 55.76418329596858], [37.73430883541169, 55.76418723457016], [37.7343018506101, 55.7644028289013], [37.733919453733684, 55.76439889026803], [37.73392644064416, 55.76418329596858]]]}}, {"type": "Feature", "properties": {"id": 254, "object_type": "restriction", "restriction_type": "oks"}, "geometry": {"type": "Polygon", "coordinates": [[[37.73391596024282, 55.76450668741468], [37.7342983581737, 55.76451062606379], [37.734291373229674, 55.764726220382634], [37.73390897318985, 55.76472228170184], [37.73391596024282, 55.76450668741468]]]}}, {"type": "Feature", "properties": {"id": 255, "object_type": "restriction", "restriction_type": "oks"}, "geometry": {"type": "Polygon", "coordinates": [[[37.73450003283106, 55.764189203424934], [37.73488242774102, 55.76419314024243], [37.7348754461028, 55.764408734621064], [37.73449304908393, 55.764404797771896], [37.73450003283106, 55.764189203424934]]]}}, {"type": "Feature", "properties": {"id": 256, "object_type": "restriction", "restriction_type": "oks"}, "geometry": {"type": "Polygon", "coordinates": [[[37.734489557174754, 55.76451259494232], [37.73487195524808, 55.76451653180731], [37.73486497346747, 55.764732126173655], [37.7344825732852, 55.764728189277], [37.734489557174754, 55.76451259494232]]]}}, {"type": "Feature", "properties": {"id": 257, "object_type": "source"}, "geometry": {"type": "Point", "coordinates": [37.730109600320596, 55.759021838975016]}}, {"type": "Feature", "properties": {"id": 258, "object_type": "heat_network", "diameter": 500}, "geometry": {"type": "LineString", "coordinates": [[37.730109600320596, 55.759021838975016], [37.72991980417213, 55.76486084467681]]}}, {"type": "Feature", "properties": {"id": 259, "object_type": "heat_network", "diameter": 400}, "geometry": {"type": "LineString", "coordinates": [[37.73001617095009, 55.76189642714884], [37.73527379168788, 55.761950644475796]]}}, {"type": "Feature", "properties": {"id": 260, "object_type": "oks_connection_point", "flow_tph": 7.07}, "geometry": {"type": "Point", "coordinates": [37.73170737592122, 55.76019754614028]}}, {"type": "Feature", "properties": {"id": 261, "object_type": "oks_connection_point", "flow_tph": 38.16}, "geometry": {"type": "Point", "coordinates": [37.73478099091939, 55.762062391461996]}}, {"type": "Feature", "properties": {"id": 262, "object_type": "oks_connection_point", "flow_tph": 25.4}, "geometry": {"type": "Point", "coordinates": [37.727113149536265, 55.75982654777564]}}, {"type": "Feature", "properties": {"id": 263, "object_type": "oks_connection_point", "flow_tph": 25.49}, "geometry": {"type": "Point", "coordinates": [37.7290761574351, 55.76017036373178]}}, {"type": "Feature", "properties": {"id": 264, "object_type": "oks_connection_point", "flow_tph": 12.74}, "geometry": {"type": "Point", "coordinates": [37.7322900011823, 55.7598800577622]}}, {"type": "Feature", "properties": {"id": 265, "object_type": "oks_connection_point", "flow_tph": 9.66}, "geometry": {"type": "Point", "coordinates": [37.725275149185116, 55.761245274763255]}}, {"type": "Feature", "properties": {"id": 266, "object_type": "oks_connection_point", "flow_tph": 23.92}, "geometry": {"type": "Point", "coordinates": [37.72584944124046, 55.76197011881175]}}, {"type": "Feature", "properties": {"id": 267, "object_type": "oks_connection_point", "flow_tph": 24.61}, "geometry": {"type": "Point", "coordinates": [37.73351459661469, 55.762049347739705]}}, {"type": "Feature", "properties": {"id": 268, "object_type": "oks_connection_point", "flow_tph": 8.61}, "geometry": {"type": "Point", "coordinates": [37.73041042384043, 55.76090304308073]}}, {"type": "Feature", "properties": {"id": 269, "object_type": "oks_connection_point", "flow_tph": 11.58}, "geometry": {"type": "Point", "coordinates": [37.72515354919695, 55.76340067952905]}}, {"type": "Feature", "properties": {"id": 270, "object_type": "oks_connection_point", "flow_tph": 29.92}, "geometry": {"type": "Point", "coordinates": [37.72774325184781, 55.76446990293038]}}, {"type": "Feature", "properties": {"id": 271, "object_type": "oks_connection_point", "flow_tph": 26.67}, "geometry": {"type": "Point", "coordinates": [37.730328449058916, 55.763058860832956]}}, {"type": "Feature", "properties": {"id": 272, "object_type": "oks_connection_point", "flow_tph": 23.61}, "geometry": {"type": "Point", "coordinates": [37.7259057467099, 55.76125181384397]}}, {"type": "Feature", "properties": {"id": 273, "object_type": "oks_connection_point", "flow_tph": 21.3}, "geometry": {"type": "Point", "coordinates": [37.73430064319065, 55.76061966972241]}}, {"type": "Feature", "properties": {"id": 274, "object_type": "oks_connection_point", "flow_tph": 17.66}, "geometry": {"type": "Point", "coordinates": [37.730405702128394, 55.759465217504435]}}, {"type": "Feature", "properties": {"id": 275, "object_type": "oks_connection_point", "flow_tph": 11.29}, "geometry": {"type": "Point", "coordinates": [37.72713388686891, 55.762702317008596]}}, {"type": "Feature", "properties": {"id": 276, "object_type": "oks_connection_point", "flow_tph": 7.86}, "geometry": {"type": "Point", "coordinates": [37.725269103179706, 55.76084982319772]}}, {"type": "Feature", "properties": {"id": 277, "object_type": "oks_connection_point", "flow_tph": 22.33}, "geometry": {"type": "Point", "coordinates": [37.72578976810272, 55.76268838876952]}}, {"type": "Feature", "properties": {"id": 278, "object_type": "oks_connection_point", "flow_tph": 20.71}, "geometry": {"type": "Point", "coordinates": [37.729692077142474, 55.76161450846953]}}, {"type": "Feature", "properties": {"id": 279, "object_type": "oks_connection_point", "flow_tph": 7.56}, "geometry": {"type": "Point", "coordinates": [37.72969998381933, 55.76089570184312]}}, {"type": "Feature", "properties": {"id": 280, "object_type": "oks_connection_point", "flow_tph": 10.77}, "geometry": {"type": "Point", "coordinates": [37.72522887013377, 55.762287183426345]}}, {"type": "Feature", "properties": {"id": 281, "object_type": "oks_connection_point", "flow_tph": 37.66}, "geometry": {"type": "Point", "coordinates": [37.72644586515517, 55.764456465957004]}}, {"type": "Feature", "properties": {"id": 282, "object_type": "oks_connection_point", "flow_tph": 38.67}, "geometry": {"type": "Point", "coordinates": [37.72573686334149, 55.76301134011048]}}, {"type": "Feature", "properties": {"id": 283, "object_type": "oks_connection_point", "flow_tph": 24.53}, "geometry": {"type": "Point", "coordinates": [37.7304217862741, 55.76162204873646]}}, {"type": "Feature", "properties": {"id": 284, "object_type": "oks_connection_point", "flow_tph": 33.64}, "geometry": {"type": "Point", "coordinates": [37.7290862119871, 55.76128474484301]}}]}